ID,Site,URL,Full Street Address,Street address,Suite,City,State,Zip,Group,Brand Facebook URL,Brand Twitter handle,Brand Twitter URL,Newseum front page link KILL/WILL NOT WORK,Daily/Wkly,Frequency,MNG/JRC,lat,lon
1,Contra Costa Times,http://www.contracostatimes.com,"2640 Shadelands Drive, Walnut Creek, CA 94598",2640 Shadelands Drive,,Walnut Creek,CA,94598,BANG - Bay Area News Group,https://www.facebook.com/contracostatimes?fref=ts,@CCTimes,https://twitter.com/CCTimes,http://webmedia.newseum.org/newseum-multimedia/dfp/jpg15/lg/CA_CCT.jpg,D,D,MNG,37.927168,-122.023671
2,Inside Bay Area,http://www.insidebayarea.com/,"7677 Oakport St., Suite 950, Oakland, CA 94621",7677 Oakport St., Suite 950,Oakland,CA,94621,BANG - Bay Area News Group,https://www.facebook.com/oaklandtribune,@insidebayarea,https://twitter.com/insidebayarea,http://webmedia.newseum.org/newseum-multimedia/dfp/jpg15/lg/CA_OT.jpg,D,D,MNG,37.745764,-122.201457
3,San Jose Mercury News,http://www.mercurynews.com,"750 Ridder Park Drive, San Jose, CA 95190",750 Ridder Park Drive,,San Jose,CA,95190,BANG - Bay Area News Group,https://www.facebook.com/mercurynews,@mercnews,https://twitter.com/mercnews,http://webmedia.newseum.org/newseum-multimedia/dfp/jpg15/lg/CA_SJMN.jpg,D,D,MNG,37.377486,-121.902866
4,Marin Independent Journal,http://www.marinij.com/,"4000 Civic Center Drive, Suite 301, San Rafael, CA 94903",4000 Civic Center Drive, Suite 301,San Rafael,CA,94903,BANG - Bay Area News Group,https://www.facebook.com/marinijfan?fref=ts,@marinij,https://twitter.com/marinij,,D,D,MNG,38.004018,-122.538689
5,Santa Cruz Sentinel,http://www.santacruzsentinel.com/,"1800 Green Hills Road, Suite 210, Scotts Valley, CA 95066",1800 Green Hills Road, Suite 210,Scotts Valley,CA,95066,BANG - Bay Area News Group,https://www.facebook.com/SCSentinel?fref=ts,@scsentinel,https://twitter.com/scsentinel,http://www.newseum.org/todaysfrontpages/hr.asp?fpVname=CA_SCS&ref_pge=lst,D,D,MNG,37.051827,-122.009262
6,The Denver Post,http://www.denverpost.com,"101 W. Colfax Ave., Suite 600, Denver, CO 80202",101 W. Colfax Ave., Suite 600,Denver,CO,80202,COLORADO,http://www.facebook.com/denverpost,@denverpost,https://twitter.com/denverpost,http://webmedia.newseum.org/newseum-multimedia/dfp/jpg15/lg/CO_DP.jpg,D,D,MNG,39.74067,-104.988789
7,Boulder Daily Camera,http://www.dailycamera.com/,"5450 Western Ave., Boulder, CO 80301",5450 Western Ave.,,Boulder,CO,80301,COLORADO,http://www.facebook.com/dailycamera?ref=ts&fref=ts,@dailycamera,https://twitter.com/dailycamera,,D,D,MNG,40.017747,-105.226818
8,Akron News Reporter,http://www.akronnewsreporter.com/,"69 Main Ave., Akron, CO 80720",69 Main Ave.,,Akron,CO,80720,COLORADO,http://www.facebook.com/AkronNewsReporter,@AkronNewsReport,https://twitter.com/AkronNewsReport,,W,W,MNG,40.15875,-103.212743
9,Broomfield Enterprise,http://www.broomfieldenterprise.com/,"3400 Industrial Lane, Suite 2, Broomfield, CO 80020",3400 Industrial Lane, Suite 2,Broomfield,CO,80020,COLORADO,http://www.facebook.com/BroomfieldEnterprise?fref=ts,@bfld_enterprise,https://twitter.com/bfld_enterprise,,W,W,MNG,39.923532,-105.107038
10,Brush News Tribune,http://www.brushnewstribune.com/,"109 Clayton St., Brush, CO 80723",109 Clayton St.,,Brush,CO,80723,COLORADO,http://www.facebook.com/BrushNewsTribune?fref=ts,@BrushNewsTrib,https://twitter.com/BrushNewsTrib,,W,W,MNG,40.254487,-103.623173
11,Estes Park Trail-Gazette,http://www.eptrail.com/,"251 Moraine Ave., Estes Park, CO 80517",251 Moraine Ave.,,Estes Park,CO,80517,COLORADO,http://www.facebook.com/eptrail?fref=ts,@EPTrailGazette,https://twitter.com/EPTrailGazette,,W,W,MNG,40.373912,-105.523577
12,Journal-Advocate,http://www.journal-advocate.com/,"504 North 3rd St., Sterling, CO 80751",504 North 3rd St.,,Sterling,CO,80751,COLORADO,http://www.facebook.com/journaladvocate?fref=ts,@SterlingJA,https://twitter.com/SterlingJA,,D,D,MNG,40.628673,-103.204832
13,Julesburg Advocate,http://www.julesburgadvocate.com/,"108 Cedar St., Julesburg, CO 80737",108 Cedar St.,,Julesburg,CO,80737,COLORADO,http://www.facebook.com/JulesburgAdvocate?fref=ts,@JlsburgAdvocate,https://twitter.com/JlsburgAdvocate,,W,W,MNG,40.986661,-102.262424
14,Lamar Ledger,http://www.lamarledger.com/,"310 South 5th St., Lamar, CO 81052",310 South 5th St.,,Lamar,CO,81052,COLORADO,http://www.facebook.com/lamarledger?fref=ts,@LamarLedger,https://twitter.com/LamarLedger,,W,W,MNG,38.086885,-102.620438
15,The Burlington Record,http://www.burlington-record.com/,"302 South 14th St., Burlington, CO 80807",302 South 14th St.,,Burlington,CO,80807,COLORADO,http://www.facebook.com/BurlingtonRecord?ref=ts&fref=ts,@BrlingtonRecord,https://twitter.com/BrlingtonRecord,,W,W,MNG,39.300429,-102.268031
16,The Fort Morgan Times,http://www.fortmorgantimes.com/,"329 Main St., Fort Morgan, CO 80701",329 Main St.,,Fort Morgan,CO,80701,COLORADO,http://www.facebook.com/fortmorgantimes?ref=ts&fref=ts,@FortMorganTimes,https://twitter.com/FortMorganTimes,,D,D,MNG,40.250315,-103.801487
17,Longmont Times Call,http://www.timescall.com/,"350 Terry St., Longmont, CO 80501",350 Terry St.,,Longmont,CO,80501,COLORADO,http://www.facebook.com/LongmontTimesCall?fref=ts,@TimesCall,https://twitter.com/TimesCall,,D,D,MNG,40.164849,-105.105131
18,Loveland Reporter-Herald,http://www.reporterherald.com/,"201 East 5th St., Loveland, CO 80537",201 East 5th St.,,Loveland,CO,80537,COLORADO,http://www.facebook.com/reporterherald?fref=ts,@reporterherald,https://twitter.com/reporterherald,http://webmedia.newseum.org/newseum-multimedia/dfp/jpg15/lg/CO_LRH.jpg,D,D,MNG,40.396517,-105.074389
19,Colorado Hometown Weekly,http://www.coloradohometownweekly.com/,"3400 Industrial Lane, Suite 2, Broomfiield, CO 80020",3400 Industrial Lane, Suite 2,Broomfiield,CO,80020,COLORADO,http://www.facebook.com/coloradohometownweekly?fref=ts,@CoHoWeekly,https://twitter.com/CoHoWeekly,,W,W,MNG,39.923532,-105.107038
20,Canon City Daily Record,http://www.canoncitydailyrecord.com/,"701 South 9th St., Canon City, CO 81212",701 South 9th St.,,Canon City,CO,81212,COLORADO,http://www.facebook.com/CanonCityDailyRecord?fref=ts,@CCDR_news,https://twitter.com/CCDR_news,,D,D,MNG,38.436882,-105.231946
21,Colorado Daily,http://www.coloradodaily.com,"5450 Western Ave., Boulder, CO 80301",5450 Western Ave.,,Boulder,CO,80301,COLORADO,http://www.facebook.com/coloradodaily?fref=ts,@coloradodaily,https://twitter.com/coloradodaily,,5/W,D,MNG,40.017747,-105.226818
22,Longmont Weekly,http://www.longmontweekly.com,"1067 South Hover St., Unit E, Longmont, CO 80501",1067 South Hover St., Unit E,Longmont,CO,80501,COLORADO,http://www.facebook.com/LongmontWeekly?fref=ts,@LongmontWeekly,https://twitter.com/LongmontWeekly,,W,W,MNG,40.14872,-105.130852
23,Viva Colorado,http://www.vivacolorado.com/,"101 West Colfax Ave., 6th Floor, Denver, CO 80202",101 West Colfax Ave., 6th Floor,Denver,CO,80202,COLORADO,www.Facebook.com/TuVivaColorado,@vivacolorado,https://twitter.com/vivacolorado,,W,W,MNG,39.74067,-104.988789
24,New Haven Register,http://nhregister.com,"40 Sargent Drive, New Haven, CT 06511",40 Sargent Drive,,New Haven,CT,6511,CONNECTICUT,https://www.facebook.com/RegisterCitizen?fref=ts#!/NewHavenRegister?fref=ts,@nhregister,https://twitter.com/nhregister,http://webmedia.newseum.org/newseum-multimedia/dfp/jpg15/lg/CT_NHR.jpg,D,D,JRC,41.286399,-72.926672
25,The Middletown Press,http://middletownpress.com,"386 Main St., 4th Floor, Middletown, CT 06457",386 Main St., 4th Floor,Middletown,CT,6457,CONNECTICUT,https://www.facebook.com/RegisterCitizen?fref=ts#!/middletownpress?fref=ts,@MiddletownPress,https://twitter.com/Middletownpress,http://webmedia.newseum.org/newseum-multimedia/dfp/jpg15/lg/CT_MP.jpg,D,D,JRC,41.56146,-72.650389
26,Register Citizen,http://registercitizen.com,"59 Field St., Torrington, CT 06790",59 Field St.,,Torrington,CT,6790,CONNECTICUT,https://www.facebook.com/RegisterCitizen?fref=ts,@RegisterCitizen,https://twitter.com/RegisterCitizen,,D,D,JRC,41.806673,-73.125726
27,Litchfield County Times,http://countytimes.com,"59 Field St., Torrington, CT 06790",59 Field St.,,Torrington,CT,6790,CONNECTICUT,https://www.facebook.com/#!/TheLitchfieldCtyTimes?fref=ts,@thelct,https://twitter.com/thelct,,W,W,JRC,41.806673,-73.125726
28,West Hartford News,http://westhartfordnews.com,"386 Main St., 4th Floor, Middletown, CT 06457",386 Main St., 4th Floor,Middletown,CT,6457,CONNECTICUT,https://www.facebook.com/#!/WHartfordNews?fref=ts,@WHartfordNews,https://twitter.com/WHartfordNews,,W,W,JRC,41.56146,-72.650389
29,Housatonic Times,http://Housatonictimes.com,"59 Field St., Torrington, CT 06790",59 Field St.,,Torrington,CT,6790,CONNECTICUT,https://www.facebook.com/RegisterCitizen?fref=ts#!/HousatonicTimes?fref=ts,@housatonictimes,https://twitter.com/HousatonicTimes,,W,W,JRC,41.806673,-73.125726
30,Minuteman News Center,http://Minutemannewscenter.com,"40 Sargent Drive, New Haven, CT 06511",40 Sargent Drive,,New Haven,CT,6511,CONNECTICUT,http://bit.ly/TvTlul,@fairfieldminute & @westportminute,http://bit.ly/113abED,,W,W,JRC,41.286399,-72.926672
31,Connecticut Magazine,http://Connecticutmag.com,"40 Sargent Drive, New Haven, CT 06511",40 Sargent Drive,,New Haven,CT,6511,CONNECTICUT,https://www.facebook.com/RegisterCitizen?fref=ts#!/pages/Connecticut-Magazine/285485330442?fref=ts,@connecticutmag @theCTbride,http://bit.ly/113brY7,,M,W,JRC,41.286399,-72.926672
32,Post Chronicle,http://CTpostchronicle.com,"40 Sargent Drive, New Haven, CT 06511",40 Sargent Drive,,New Haven,CT,6511,CONNECTICUT,https://www.facebook.com/RegisterCitizen?fref=ts#!/CTPostChronicle?fref=ts,@CTpostchronicle,https://twitter.com/ctpostchronicle,,W,W,JRC,41.286399,-72.926672
33,ShoreLine Times,http://Shorelinetimes.com,"40 Sargent Drive, New Haven, CT 06511",40 Sargent Drive,,New Haven,CT,6511,CONNECTICUT,https://www.facebook.com/RegisterCitizen?fref=ts#!/ShoreLineTimes?fref=ts,@ShorelineTimes,https://twitter.com/shorelinetimes,,W,W,JRC,41.286399,-72.926672
34,Dolphin News,http://Dolphin-news.com,"Naval Submarine Base, NLON PAO, New London, CT 06349",Naval Submarine Base, NLON PAO,New London,CT,6349,CONNECTICUT,http://www.facebook.com/pages/Dolphin-news/136348236420020,None,None,,W,W,JRC,41.356445,-72.096469
35,Milford-Orange Bulletin,http://Ctbulletin.com,"40 Sargent Drive, New Haven, CT 06511",40 Sargent Drive,,New Haven,CT,6511,CONNECTICUT,https://www.facebook.com/CTBulletin,@CTBulletin,https://twitter.com/CTBulletin,,W,W,JRC,41.286399,-72.926672
36,Litchfield County Mom,http://litchfieldcountymom.com,"59 Field St., Torrington, CT 06790",59 Field St.,,Torrington,CT,6790,CONNECTICUT,https://www.facebook.com/#!/LitchfieldCountyMom?fref=ts,@litchfieldmom,https://twitter.com/litchfieldmom,,O,W,JRC,41.806673,-73.125726
37,The Foothills Trader,http://foothillstrader.com,"59 Field St., Torrington, CT 06790",59 Field St.,,Torrington,CT,6790,CONNECTICUT,https://www.facebook.com/#!/FoothillsTrader?fref=ts,@shopfoothills,https://twitter.com/shopfoothills,,W,W,JRC,41.806673,-73.125726
38,Foothills Media Group,http://Foothillsmediagroup.com,"59 Field St., Torrington, CT 06790",59 Field St.,,Torrington,CT,6790,CONNECTICUT,https://www.facebook.com/#!/foothills.staff?fref=ts,@theavonnews @thecantonnews @thegranbynews @litchfieldweb @thesimsburynews @thomastonxpress,http://bit.ly/SspgMs,,W,W,JRC,41.806673,-73.125726
39,Passport Magazine,http://Passport-mag.com,"59 Field St., Torrington, CT 06790",59 Field St.,,Torrington,CT,6790,CONNECTICUT,https://www.facebook.com/#!/PASSPORTMag,@PASSPORTmag,https://twitter.com/PASSPORTmag,,Q,W,JRC,41.806673,-73.125726
40,Los Angeles Daily News,http://www.dailynews.com,"21860 Barbank Blvd, Suite 200, Woodland Hills, CA 91367",21860 Barbank Blvd, Suite 200,Woodland Hills,CA,91367,LANG - Los Angeles News Group,http://www.facebook.com/ladailynews?fref=ts,@ladailynews,https://twitter.com/ladailynews,http://webmedia.newseum.org/newseum-multimedia/dfp/jpg15/lg/CA_DN.jpg,D,D,MNG,34.172042,-118.604079
41,Daily Breeze,http://www.dailybreeze.com/,"21250 Hawthorne Blvd, Suite 170, Torrance, CA 90503",21250 Hawthorne Blvd, Suite 170,Torrance,CA,90503,LANG - Los Angeles News Group,http://www.facebook.com/dailybreeze?ref=ts&fref=ts,@DailyBreezeNews,https://twitter.com/DailyBreezeNews,http://webmedia.newseum.org/newseum-multimedia/dfp/jpg15/lg/CA_DB.jpg,D,D,MNG,33.836277,-118.353294
42,Inland Valley Daily Bulletin,http://www.dailybulletin.com/,"2041 East Fourth St., Ontario, CA 91764",2041 East Fourth St.,,Ontario,CA,91764,LANG - Los Angeles News Group,http://www.facebook.com/dailybulletin?fref=ts,@ivdailybulletin,https://twitter.com/ivdailybulletin,,D,D,MNG,34.077584,-117.607335
43,Press-Telegram,http://www.presstelegram.com/,"300 Oceangate, Long Beach, CA 90844",300 Oceangate,,Long Beach,CA,90844,LANG - Los Angeles News Group,http://www.facebook.com/presstelegram?fref=ts,@presstelegram,https://twitter.com/presstelegram,http://webmedia.newseum.org/newseum-multimedia/dfp/jpg15/lg/CA_PT.jpg,D,D,MNG,33.767207,-118.200634
44,San Gabriel Valley Tribune,http://www.sgvtribune.com/,"1210 N. Azusa Canyon Rd, West Covina, CA 91790",1210 N. Azusa Canyon Rd,,West Covina,CA,91790,LANG - Los Angeles News Group,http://www.facebook.com/sgvtribune?fref=ts,@SGVTribune,https://twitter.com/SGVTribune,,D,D,MNG,34.09142,-117.943042
45,Pasadena Star-News,http://www.pasadenastarnews.com/,"911 East Colorado Blvd, Pasadena, CA 91106",911 East Colorado Blvd,,Pasadena,CA,91106,LANG - Los Angeles News Group,http://www.facebook.com/pasadenastarnews?fref=ts,@PasStarNews,https://twitter.com/PasStarNews,,D,D,MNG,34.145914,-118.131381
46,The Sun,http://www.sbsun.com/,"4030 North Georgia Blvd, San Bernardino, CA 92407",4030 North Georgia Blvd,,San Bernardino,CA,92407,LANG - Los Angeles News Group,http://www.facebook.com/sbsun?fref=ts,@sbsun,https://twitter.com/sbsun,http://webmedia.newseum.org/newseum-multimedia/dfp/jpg15/lg/CA_TS.jpg,D,D,MNG,34.164429,-117.339185
47,Whittier Daily News,http://www.whittierdailynews.com,"7612 Greenleaf Ave., Whittier, CA 90602",7612 Greenleaf Ave.,,Whittier,CA,90602,LANG - Los Angeles News Group,http://www.facebook.com/whittierdailynews?fref=ts,@WhittierNews,https://twitter.com/WhittierNews,,D,D,MNG,33.973283,-118.037367
48,Redlands Daily Facts,http://www.redlandsdailyfacts.com/,"700 Brookside Ave., Redlands, CA 92373",700 Brookside Ave.,,Redlands,CA,92373,LANG - Los Angeles News Group,http://www.facebook.com/RedlandsDailyFacts?fref=ts,@ImpactoUSA,https://twitter.com/ImpactoUSA,,D,D,MNG,34.052363,-117.191209
49,Impacto USA,http://www.impactousa.com/,"21250 Hawthorne Blvd, Suite 170, Torrance, CA 90503",21250 Hawthorne Blvd, Suite 170,Torrance,CA,90503,LANG - Los Angeles News Group,http://www.facebook.com/pages/Impacto-USA/228940803824119?fref=ts,@RedlandsNews,https://twitter.com/RedlandsNews,,D,D,MNG,33.836277,-118.353294
50,The Beach Reporter,http://www.tbrnews.com/,"2615 Pacific Coast Highway, Suite 329, Hermosa Beach, CA 90254",2615 Pacific Coast Highway, Suite 329,Hermosa Beach,CA,90254,LANG - Los Angeles News Group,http://www.facebook.com/TheBeachReporter?fref=ts,@Beach_Reporter,https://twitter.com/Beach_Reporter,,W,W,MNG,33.873046,-118.395778
51,Downtown Gazette,http://www.gazettes.com/,"5225 East Second St., Long Beach, CA 90803",5225 East Second St.,,Long Beach,CA,90803,LANG - Los Angeles News Group,,@LBGazetteNews,https://twitter.com/LBGazetteNews,,,W,MNG,33.760142,-118.134426
52,Palos Verdes Peninsula News,http://www.pvnews.com/,"609 Deep Valley Drive, Suite 229, Rolling Hills Estates, CA 90274",609 Deep Valley Drive, Suite 229,Rolling Hills Estates,CA,90274,LANG - Los Angeles News Group,,@PVNewsEditor,https://twitter.com/PVNewsEditor,,,W,MNG,33.770958,-118.372103
53,The Berkshire Eagle,http://www.berkshireeagle.com/,"75 South Church St., Pittsfield, MA 01201",75 South Church St.,,Pittsfield,MA,1201,MASSACHUSSETS,http://www.facebook.com/berkshire.eagle,@BerkshireEagle,https://twitter.com/BerkshireEagle,,D,D,MNG,42.446855,-73.259717
54,Lowell Sun,http://www.lowellsun.com/,"491 Dutton St., Lowell, MA 01854",491 Dutton St.,,Lowell,MA,1854,MASSACHUSSETS,facebook.com/LowellSun,@LowellSunNews,https://twitter.com/LowellSunNews,,D,D,MNG,42.641237,-71.316771
55,Sentinel & Enterprise,http://www.sentinelandenterprise.com/,"808 Main St., Fitchburg, MA 01420",808 Main St.,,Fitchburg,MA,1420,MASSACHUSSETS,facebook.com/SentinelandEnterprise,@SentandEnt,https://twitter.com/SentandEnt,,D,D,MNG,42.585319,-71.804791
56,The Advocate Weekly,http://www.advocateweekly.com/,"85 Main St., Suite 2, North Adams, MA 01247",85 Main St., Suite 2,North Adams,MA,1247,MASSACHUSSETS,facebook.com/TheAdvocateWeekly,None,None,,W,W,MNG,42.698971,-73.111444
57,North Adams Transcript,http://www.thetranscript.com/,"85 Main St., Suite 2, North Adams, MA 01247",85 Main St., Suite 2,North Adams,MA,1247,MASSACHUSSETS,www.facebook.com/natranscript,@NATranscript,https://twitter.com/NATranscript,,D,D,MNG,42.698971,-73.111444
58,Nashoba Publishing,http://www.nashobapublishing.com,"78 Barnum Road, Devens, MA 01434-3508",78 Barnum Road,,Devens,MA, 01434-3508,MASSACHUSSETS,facebook.com/NashobaPub,,,,W,W,MNG,42.53751,-71.594679
59,The Oakland Press,http://Theoaklandpress.com,"48 W. Huron Street, Pontiac, MI 48342",48 W. Huron Street,,Pontiac,MI,48342,MICHIGAN,http://bit.ly/OPbrandFB,@TheOaklandPress,https://twitter.com/TheOaklandPress,,D,D,JRC,42.638473,-83.294607
60,The Macomb Daily,http://Macombdaily.com,"100 Macomb Daily Drive, Mount Clemens, MI 48043",100 Macomb Daily Drive,,Mount Clemens,MI,48043,MICHIGAN,http://bit.ly/MDbrandFB,@macombdaily,https://twitter.com/macombdaily,,D,D,JRC,42.598321,-82.863121
61,The Morning Sun,http://Themorningsun.com,"711 W. Pickard St., Mt. Pleasant, MI 48858",711 W. Pickard St.,,Mt. Pleasant,MI,48858,MICHIGAN,http://bit.ly/MSbrandFB,@MPMorningSun,https://twitter.com/MPMorningSun,,D,D,JRC,43.611738,-84.784615
62,Daily Tribune,http://Dailytribune.com,"100 Macomb Daily Drive, Mount Clemens, MI 48043",100 Macomb Daily Drive,,Mount Clemens,MI,48043,MICHIGAN,http://bit.ly/DailyTribbrandFB,@dailytrib,https://twitter.com/DailyTrib,,4/w,W,JRC,42.598321,-82.863121
63,Heritage Newspapers West,http://Heritage.com,"106 West Michigan Avenue, Saline, MI 48176",106 West Michigan Avenue,,Saline,MI,48176,MICHIGAN,http://bit.ly/HeritageFBpages,"@A2Journal, @SalineMilanNews, @manchenterprise, @YpsiCourier, @BellevilleView, @chelseadexter",http://bit.ly/Ue0QEX,,W,W,JRC,42.16654,-83.781653
64,The News Herald,http://Thenewsherald.com,"One Heritage Drive, Suite 100, Southgate, MI 48195",One Heritage Drive, Suite 100,Southgate,MI,48195,MICHIGAN,http://bit.ly/NewsHeraldMIbrandFB,@NewsHeraldMI,https://twitter.com/NewsHeraldMI,,3/W,W,JRC,42.21066,-83.222794
65,Press & Guide,http://Pressandguide.com,"One Heritage Drive, Suite 100, Southgate, MI 48195",One Heritage Drive, Suite 100,Southgate,MI,48195,MICHIGAN,http://bit.ly/PGbrandFB,@pressandguide,https://twitter.com/pressandguide,,W,W,JRC,42.21066,-83.222794
66,The Voice Newspapers,http://Voicenews.com,"51180 Bedford St., New Baltimore, MI 48047",51180 Bedford St.,,New Baltimore,MI,48047,MICHIGAN,http://bit.ly/VNbrandFB,@VoicenewsNB,https://twitter.com/VoicenewsNB,,W,W,JRC,42.681691,-82.735559
67,Advisor and Source Newspapers,http://Sourcenewspapers.com,"48075 Van Dyke, Shelby Twp, MI 48317",48075 Van Dyke,,Shelby Twp,MI,48317,MICHIGAN,http://bit.ly/SOURCEbrandFB,@advisorsource,https://twitter.com/advisorsource,,W,W,JRC,42.648507,-83.033185
68,Detroit News,http://www.detroitnews.com,"615 W. Lafayette Blvd., Detroit, MI 48220",615 W. Lafayette Blvd.,,Detroit,MI,48220,MICHIGAN,http://bit.ly/DetNewsbrandFB,@detnews,https://twitter.com/detnews,http://webmedia.newseum.org/newseum-multimedia/dfp/jpg15/lg/MI_DN.jpg,D,D,MNG,42.32901,-83.054008
69,The Leader and The Kalkaskian,http://morningstarpublishing.com/leader_and_kalkaskian/,"318 North Cedar Street, Kalkaska, MI 49646",318 North Cedar Street,,Kalkaska,MI,49646,MICHIGAN,http://bit.ly/L-KbrandFB,,,,W,W,JRC,44.737621,-85.174468
70,Grand Traverse Insider,http://www.morningstarpublishing.com/grand_traverse_insider/,"410 South Union Street, Traverse City, MI 49684",410 South Union Street,,Traverse City,MI,49684,MICHIGAN,http://bit.ly/GTIbrandFB,@TheGTInsider,https://twitter.com/TheGTInsider,,W,W,JRC,44.760308,-85.623795
71,St. Paul Pioneer Press,http://www.twincities.com/,"345 Cedar Street, St. Paul, MN 55101",345 Cedar Street,,St. Paul,MN,55101,MINNESOTA,http://bit.ly/PiPressbrandFB,@PioneerPress,https://twitter.com/PioneerPress,http://webmedia.newseum.org/newseum-multimedia/dfp/jpg15/lg/MN_PP.jpg,D,D,MNG,44.945805,-93.092779
72,Trentonian,http://Trentonian.com,"600 Perry Street, Trenton, NJ 08618",600 Perry Street,,Trenton,NJ,8618,NEW JERSEY,http://www.facebook.com/pages/Trenton-NJ/Trentoniancom/108200919211582,@Trentonian,https://twitter.com/Trentonian,,D,D,JRC,40.225522,-74.754682
73,South Jersey Local News,http://www.southjerseylocalnews.com/,"32 S. Main Street, Medford, NJ 08055",32 S. Main Street,,Medford,NJ,8055,NEW JERSEY,http://bit.ly/V4UoAL,"@CentralRecord, @MapleShadeProg, @NJRecordBreeze, @NJCommunityNews",http://bit.ly/Tv9fWN,,W,W,JRC,39.898294,-74.823547
74,El Latino Expreso,http://www.njexpreso.com/,"600 Perry Street, Trenton, NJ 08618",600 Perry Street,,Trenton,NJ,8618,NEW JERSEY,http://www.facebook.com/ElLatinoExpreso?fref=ts,,,,W,W,JRC,40.225522,-74.754682
75,Las Cruces Sun-News,http://www.lcsun-news.com/,"715 E. Idaho, Building 4, Suites C & D,  Las Cruces, NM 88004",715 E. Idaho,"Building 4, Suites C & D",Las Cruces,NM,88004,NEW MEXICO,http://bit.ly/LasCrucesbrandFB,@CrucesSunNews,https://twitter.com/CrucesSunNews,,D,D,MNG,32.312201,-106.792944
76,Alamogordo Daily News,http://www.alamogordonews.com,"518 24th St., Alamogordo, NM 88310",518 24th St.,,Alamogordo,NM,88310,NEW MEXICO,http://bit.ly/AlamogordoBrandFB,@alamogordonews,https://twitter.com/alamogordonews,,6/W,D,MNG,32.919022,-105.956237
77,The Daily Times,http://www.daily-times.com,"201 North Allen, Farmington, NM 87499",201 North Allen,,Farmington,NM,87499,NEW MEXICO,http://bit.ly/FDTbrandFB,@TheDailyTimes,https://twitter.com/TheDailyTimes,http://bit.ly/FDTNewseum,D,D,MNG,36.73045,-108.206657
78,Carlsbad Current-Argus,http://www.currentargus.com,"620 S. Main St., Carlsbad, NM 88221-1629",620 S. Main St.,,Carlsbad,NM, 88221-1629,NEW MEXICO,http://www.facebook.com/pages/Carlsbad-Current-Argus/130211193676772,@CCurrentArgus,https://twitter.com/CCurrentArgus,,D,D,MNG,32.414122,-104.22647
79,Ruidoso News,http://www.ruidosonews.com/,"104 Park Avenue, Ruidoso, NM 88345",104 Park Avenue,,Ruidoso,NM,88345,NEW MEXICO,http://www.facebook.com/pages/Ruidoso-News/136941796341905,@RuidosoNews,https://twitter.com/RuidosoNews,,W,W,MNG,33.327802,-105.663171
80,Silver City Sun News,http://www.scsun-news.com/,"208 W. Broadway, Silver City, NM 88061",208 W. Broadway,,Silver City,NM,88061,NEW MEXICO,http://www.facebook.com/scsunnews,@SCSunNews,https://twitter.com/SCSunNews,,W,W,MNG,32.769838,-108.277244
81,The Deming Headlight,http://www.demingheadlight.com,"219 E. Maple, Deming, NM 88031",219 E. Maple,,Deming,NM,88031,NEW MEXICO,http://www.facebook.com/demingheadlight,@demingheadlight,https://twitter.com/demingheadlight,,W,W,MNG,32.265821,-107.756632
82,Four Corners Business Journal,http://www.businessjournals.com/,"201 N. Allen, Farmington, NM 87401",201 N. Allen,,Farmington,NM,87401,NEW MEXICO,,,,,?,,MNG,36.73045,-108.206657
83,Daily Freeman,http://Dailyfreeman.com,"79 Hurley Ave., Kingston, NY 12401",79 Hurley Ave.,,Kingston,NY,12401,NEW YORK,http://www.facebook.com/Freeman,@dailyfreeman,https://twitter.com/DailyFreeman,,D,D,JRC,41.937001,-74.028705
84,Saratogian,http://Saratogian.com,"20 Lake Avenue, Saratoga Springs, NY 12866",20 Lake Avenue,,Saratoga Springs,NY,12866,NEW YORK,https://www.facebook.com/Saratogian,@SaratogianNews,https://twitter.com/SaratogianNews,,D,D,JRC,43.083002,-73.783602
85,The Record,http://Troyrecord.com,"501 Broadway, Troy, NY 12180",501 Broadway,,Troy,NY,12180,NEW YORK,http://www.facebook.com/troyrecord,@TroyRecord,https://twitter.com/troyrecord,,D,D,JRC,42.73094,-73.687153
86,Oneida Daily Dispatch,http://Oneidadispatch.com,"130 Broad Street, Oneida, NY 13421",130 Broad Street,,Oneida,NY,13421,NEW YORK,http://www.facebook.com/pages/Oneida-Daily-Dispatch/298810515781,@oneidadispatch,https://twitter.com/Oneidadispatch,,D,D,JRC,43.094239,-75.653316
87,CN Weekly (Community News),http://CNweekly.com,"20 Lake Avenue, Saratoga Springs, NY 12866",20 Lake Avenue,,Saratoga Springs,NY,12866,NEW YORK,www.facebook.com/CommunityNewsNY,@cnweekly,https://twitter.com/CNWeekly,,W,W,JRC,43.083002,-73.783602
88,Rome Observer,http://Romeobserver.com,"130 Broad St., Oneida, NY 13421",130 Broad St.,,Oneida,NY,13421,NEW YORK,https://www.facebook.com/pages/Rome-Observer/340124912888,@romeobserver,https://twitter.com/RomeObserver,,W,W,JRC,43.094239,-75.653316
89,Las Noticias,http://www.lasnoticiasny.com/,"79 Hurley Avenue, Kingston, NY 12401",79 Hurley Avenue,,Kingston,NY,12401,NEW YORK,,,,,W,W,JRC,41.937001,-74.028705
90,Enterprise-Record,http://www.chicoer.com/,"400 E. Park Ave., Chico, CA 95928",400 E. Park Ave.,,Chico,CA,95928,NORCAL - Northern California,http://www.facebook.com/chico.enterpriserecord?fref=ts,@ChicoER,https://twitter.com/ChicoER,http://webmedia.newseum.org/newseum-multimedia/dfp/jpg15/lg/CA_ER.jpg,D,D,MNG,39.714761,-121.806928
91,Monterey County Herald,http://www.montereyherald.com/,"8 Upper Ragsdale Drive, Monterey, CA 93940",8 Upper Ragsdale Drive,,Monterey,CA,93940,NORCAL - Northern California,http://www.facebook.com/montereycountyherald?fref=ts,@MontereyHerald,https://twitter.com/MontereyHerald,http://webmedia.newseum.org/newseum-multimedia/dfp/jpg15/lg/CA_MCH.jpg,D,D,MNG,36.579313,-121.814118
92,The Reporter,http://www.thereporter.com,"916 Cotting Lane, Vacaville, CA 95688",916 Cotting Lane,,Vacaville,CA,95688,NORCAL - Northern California,http://www.facebook.com/thereporter?fref=ts,@vacareporter,https://twitter.com/vacareporter,,D,D,MNG,38.396772,-121.954725
93,Times-Herald,http://www.timesheraldonline.com/,"440 Curtola Parkway, Vallejo CA 94590",440 Curtola Parkway,,Vallejo,CA,94590,NORCAL - Northern California,http://www.facebook.com/timesherald?fref=ts,@vjotimesherald,https://twitter.com/vjotimesherald,,D,D,MNG,38.097149,-122.25265
94,Times-Standard,http://www.times-standard.com/,"930 Sixth St., Eureka, CA 95501",930 Sixth St.,,Eureka,CA,95501,NORCAL - Northern California,http://www.facebook.com/TimesStandard?fref=ts,@eurekaTS,https://twitter.com/eurekaTS,,D,D,MNG,40.801738,-124.161038
95,Lake County Record-Bee,http://www.record-bee.com/,"2150 South Main St., Lakeport, CA 95453",2150 South Main St.,,Lakeport,CA,95453,NORCAL - Northern California,http://www.facebook.com/recordbee?fref=ts,@RecordBee,https://twitter.com/RecordBee,,D,D,MNG,39.02533,-122.915694
96,Daily Democrat,http://www.dailydemocrat.com/,"711 Main St., Woodland, CA 95695",711 Main St.,,Woodland,CA,95695,NORCAL - Northern California,http://www.facebook.com/dailydemocrat?ref=ts&fref=ts,@woodlandnews,https://twitter.com/woodlandnews,,D,D,MNG,38.677446,-121.771632
97,Fort Bragg Advocate News,http://www.advocate-news.com/,"450 North Franklin St., Fort Bragg, CA 95437",450 North Franklin St.,,Fort Bragg,CA,95437,NORCAL - Northern California,http://www.facebook.com/FortBraggAdvocateNews?fref=ts,@FBAdvocateNews,https://twitter.com/FBAdvocateNews,,W,W,MNG,39.44615,-123.804556
98,Mendocino Beacon,http://www.mendocinobeacon.com/,"450 North Franklin St., Fort Bragg, CA 95437",450 North Franklin St.,,Fort Bragg,CA,95437,NORCAL - Northern California,http://www.facebook.com/MendocinoBeacon?fref=ts,@MendocinoBeacon,https://twitter.com/MendocinoBeacon,,W,W,MNG,39.44615,-123.804556
99,Oroville Mercury-Register,http://www.orovillemr.com/,"2124 Fifth Ave., Oroville, CA 95965",2124 Fifth Ave.,,Oroville,CA,95965,NORCAL - Northern California,,@OrovilleMR,https://twitter.com/OrovilleMR,,W,W,MNG,39.503533,-121.564752
100,Paradise Post,http://www.paradisepost.com/,"5399 Clark Road, Paradise, CA 95969",5399 Clark Road,,Paradise,CA,95969,NORCAL - Northern California,http://www.facebook.com/ParadisePost?fref=ts,@ParadisePost,https://twitter.com/ParadisePost,,D,D,MNG,39.743818,-121.607677
101,Red Bluff Daily News,http://www.redbluffdailynews.com/,"545 Diamond Ave., Red Bluff, CA 96080",545 Diamond Ave.,,Red Bluff,CA,96080,NORCAL - Northern California,http://www.facebook.com/rbdailynews?fref=ts,@redbluffnews,https://twitter.com/redbluffnews,,D,D,MNG,40.16391,-122.226265
102,Redwood Times,http://www.redwoodtimes.com/,"442 Maple Lane, Garberville, CA 95542",442 Maple Lane,,Garberville,CA,95542,NORCAL - Northern California,,,,,D,D,MNG,40.100026,-123.793968
103,The Ukiah Daily Journal,http://www.ukiahdailyjournal.com/,"590 South School St., Ukiah, CA 95482",590 South School St.,,Ukiah,CA,95482,NORCAL - Northern California,http://www.facebook.com/pages/The-Ukiah-Daily-Journal/79374461327?ref=ts&fref=ts,@UDJnews,https://twitter.com/UDJnews,,D,D,MNG,39.145857,-123.20778
104,Willits News,http://www.willitsnews.com/,"77 West Commercial St., Willits, CA 95490",77 West Commercial St.,,Willits,CA,95490,NORCAL - Northern California,http://www.facebook.com/WillitsNews,@TheWillitsNews,https://twitter.com/TheWillitsNews,,,W,MNG,39.412383,-123.35573
105,News-Herald,http://news-herald.com,"7085 Mentor Avenue, Willoughby, OH 44094",7085 Mentor Avenue,,Willoughby,OH,44094,OHIO,http://www.facebook.com/pages/Willoughby-OH/The-News-Herald/87827393092,@newsheraldinoh,https://twitter.com/newsheraldinoh,http://webmedia.newseum.org/newseum-multimedia/dfp/jpg15/lg/OH_NH.jpg,D,D,JRC,41.647294,-81.387778
106,Morning Journal,http://Morningjournal.com,"1657 Broadway Ave., Lorain, OH 44052",1657 Broadway Ave.,,Lorain,OH,44052,OHIO,http://www.facebook.com/MorningJournal,@morningjournal,https://twitter.com/MorningJournal,http://webmedia.newseum.org/newseum-multimedia/dfp/jpg15/lg/OH_TMJ.jpg,D,D,JRC,41.455757,-82.166327
107,El Latino Expreso,http://www.lorainlatino.com/,"1657 Broadway Avenue, Lorain, OH 44052",1657 Broadway Avenue,,Lorain,OH,44052,OHIO,None,None,None,,O,W,JRC,41.455757,-82.166327
108,Daily Local News,http://Dailylocal.com,"250 North Bradford Avenue, West Chester, PA 19382",250 North Bradford Avenue,,West Chester,PA,19382,PENNSYLVANIA,http://www.facebook.com/dailylocalnews,@Wcdailylocal,https://twitter.com/wcdailylocal,http://webmedia.newseum.org/newseum-multimedia/dfp/jpg15/lg/PA_DLN.jpg,D,D,JRC,39.957946,-75.617529
109,The Mercury,http://Pottsmerc.com,"24 North Hanover Street, Pottstown, PA 19464",24 North Hanover Street,,Pottstown,PA,19464,PENNSYLVANIA,http://www.facebook.com/pottstown.mercury,@MercuryX,https://twitter.com/MercuryX,http://webmedia.newseum.org/newseum-multimedia/dfp/jpg15/lg/PA_MER.jpg,D,D,JRC,40.246397,-75.650244
110,Times Herald,http://Timesherald.com,"410 Markley Street, Norristown, PA 19401",410 Markley Street,,Norristown,PA,19401,PENNSYLVANIA,http://www.facebook.com/pages/Norristown-PA/The-Times-Herald/52255693644,@TimesHeraldPA,https://twitter.com/TimesHeraldPA,,D,D,JRC,40.118046,-75.347363
111,The Reporter,http://Thereporteronline.com,"307 Derstine Ave., Lansdale, PA 19446",307 Derstine Ave.,,Lansdale,PA,19446,PENNSYLVANIA,http://www.facebook.com/lansreporter,@lansreporter,https://twitter.com/LansReporter,,D,D,JRC,40.242408,-75.287551
112,Delaware County Daily Times,http://Delcotimes.com,"500 Mildred Ave., Primos PA 19018",500 Mildred Ave.,,Primos,PA,19018,PENNSYLVANIA,http://www.facebook.com/pages/Delaware-County-Daily-Times/146420865744,@delcotimes,https://twitter.com/delcotimes,,D,D,JRC,39.91923,-75.299093
113,Mainline Media News,http://Mainlinemedianews.com,"311 East Lancaster Ave., Ardmore, PA 19003",311 East Lancaster Ave.,,Ardmore,PA,19003,PENNSYLVANIA,http://www.facebook.com/pages/Main-Line-Media-News/271581712275,@MLmedianews,https://twitter.com/MLMediaNews,,W,W,JRC,40.00371,-75.282599
114,Montgomery News,http://Montgomerynews.com,"290 Commerce Dr., Fort Washington, PA 19034",290 Commerce Dr.,,Fort Washington,PA,19034,PENNSYLVANIA,http://www.facebook.com/MontgomeryMedia,@montgomerymedia,https://twitter.com/fyiMontco,,W,W,JRC,40.13596,-75.199216
115,The Phoenix,http://Phoenixvillenews.com,"24 N. Hanover Street, Pottstown, PA 19464",24 N. Hanover Street,,Pottstown,PA,19464,PENNSYLVANIA,https://www.facebook.com/phoenix.newspaper1,@PhxvilleNews,https://twitter.com/PhxvilleNews,,W,W,JRC,40.246397,-75.650244
116,The Advance of Bucks County (Bucks Local News),http://Buckslocalnews.com,"2100 Frost Rd., Bristol, PA 19007",2100 Frost Rd.,,Bristol,PA,19007,PENNSYLVANIA,http://www.facebook.com/pages/BucksLocalNewscom/196946321084,"@BucksLocalNews, @AdvanceofBucks",http://bit.ly/X5gNlA,,W,W,JRC,40.116586,-74.894571
117,Delaware County News Network,http://Delconewsnetwork.com,"1914 Parker Avenue, Holmes, PA 19043",1914 Parker Avenue,,Holmes,PA,19043,PENNSYLVANIA,http://www.facebook.com/pages/Holmes-PA/Delco-News-Network/341820350090,@DelcoNewsNet,https://twitter.com/DelcoNewsNet,,W,W,JRC,39.895285,-75.314505
118,Berks-Mont News,http://Berksmontnews.com,"24 N. Hanover St., Pottstown, PA 19464",24 N. Hanover St.,,Pottstown,PA,19464,PENNSYLVANIA,http://bit.ly/Uu7BVn,@berksmontnews,https://twitter.com/berksmontnews,,W,W,JRC,40.246397,-75.650244
119,Southern Chester County Weeklies,http://Southernchestercountyweeklies.com,"250 N. Bradford Ave., West Chester, PA 19382",250 N. Bradford Ave.,,West Chester,PA,19382,PENNSYLVANIA,,,,,W,W,JRC,39.957946,-75.617529
120,The York Dispatch,http://www.yorkdispatch.com/,"205 N. George St., York, PA 17401",205 N. George St.,,York,PA,17401,PENNSYLVANIA,https://www.facebook.com/YorkDispatch,@YorkDispatch,https://twitter.com/YorkDispatch,http://webmedia.newseum.org/newseum-multimedia/dfp/jpg15/lg/PA_YD.jpg,D,D,MNG,39.965371,-76.729258
121,Chambersburg Public Opinion,http://www.publicopiniononline.com/,"77 N. 3rd Street, Chambersburg, PA 17201",77 N. 3rd Street,,Chambersburg,PA,17201,PENNSYLVANIA,http://www.facebook.com/publicopinionnews?fref=ts,@PONews,https://twitter.com/PONews,,D,D,MNG,39.938697,-77.656738
122,York Daily Record,http://www.ydr.com/,"1891 Loucks Road, York, PA 17408",1891 Loucks Road,,York,PA,17408,PENNSYLVANIA,https://www.facebook.com/YorkDailyRecord,@ydrcom,https://twitter.com/ydrcom,,D,D,MNG,39.97265,-76.775259
123,The Evening Sun,http://www.eveningsun.com/,"135 Baltimore St., Hanover, PA 17331",135 Baltimore St.,,Hanover,PA,17331,PENNSYLVANIA,https://www.facebook.com/hanovereveningsun,@theeveningsun,https://twitter.com/theeveningsun,,D,D,MNG,39.799004,-76.981654
124,Lebanon Daily News,http://www.ldnews.com/,"718 Poplar St., Lebanon, PA 17042",718 Poplar St.,,Lebanon,PA,17042,PENNSYLVANIA,https://www.facebook.com/ldnews,@LDNews,https://twitter.com/LDNews,,D,D,MNG,40.331051,-76.422016
125,La Voz,http://www.lavozpa.com/,"410 Markley Street, Norristown, PA 19401",410 Markley Street,,Norristown,PA,19401,PENNSYLVANIA,,,,,O,W,JRC,40.118046,-75.347363
126,Breckenridge American,http://www.breckenridgeamerican.com,"114 East Elm Street, Breckenridge, TX 76424",114 East Elm Street,,Breckenridge,TX,76424,TEXAS,http://www.facebook.com/pages/The-Breckenridge-American/84370698416?fref=ts,,,,,W,MNG,32.756288,-98.902307
127,The Star Group,http://bit.ly/Ts2l0J,"319 Burleson Blvd., Burleson, TX 76028-0909",319 Burleson Blvd.,,Burleson,TX, 76028-0909,TEXAS,,,,,W,W,MNG,32.547707,-97.317246
128,El Paso Times,http://www.elpasotimes.com/,"300 N. Campbell St., El Paso, TX 79901",300 N. Campbell St.,,El Paso,TX,79901,TEXAS,http://www.facebook.com/eptimes,@elpasotimes,https://twitter.com/elpasotimes,http://webmedia.newseum.org/newseum-multimedia/dfp/jpg15/lg/TX_EPT.jpg,,D,MNG,31.761281,-106.485287
129,Somos Frontera,http://www.somosfrontera.com/,"300 N. Campbell St., El Paso, TX 79901",300 N. Campbell St.,,El Paso,TX,79901,TEXAS,http://www.facebook.com/somosfrontera,@somos_frontera,https://twitter.com/somos_frontera,,,W,MNG,31.761281,-106.485287
130,Lake Country Sun,http://www.lakecountrysun.com,"617 N. FM 2353, Ste. 3, Graford, TX 76449",617 N. FM 2353, Ste. 3,Graford,TX,76449,TEXAS,http://www.facebook.com/pages/Lake-Country-Sun/345382108938?ref=ts&fref=ts,@lakecountrysun,https://twitter.com/lakecountrysun,,,W,MNG,32.925593,-98.428247
131,The Graham Leader,http://www.grahamleader.com/,"620 Oak Street, Graham, TX 76450",620 Oak Street,,Graham,TX,76450,TEXAS,,@grahamleader,https://twitter.com/grahamleader,,,W,MNG,33.105564,-98.591287
132,Jacksboro Gazette-News,http://www.jacksboronewspapers.com/,"212 N. Church, Jacksboro, TX 76458",212 N. Church,,Jacksboro,TX,76458,TEXAS,,,,,,W,MNG,33.220881,-98.157496
133,The Olney Enterprise,http://www.olneyenterprise.com/,"213 E. Main St., Olney, TX 76374",213 E. Main St.,,Olney,TX,76374,TEXAS,http://www.facebook.com/pages/The-Olney-Enterprise/264762117786?fref=ts,,,,,W,MNG,33.370598,-98.752434
134,The Salt Lake Tribune,http://www.sltrib.com/,"90 S. 400 West, Suite 700, Salt Lake City, UT 84101",90 S. 400 West, Suite 700,Salt Lake City,UT,84101,UTAH,http://www.facebook.com/saltlaketribune?fref=ts,@sltrib,https://twitter.com/sltrib,http://webmedia.newseum.org/newseum-multimedia/dfp/jpg15/lg/UT_SLT.jpg,D,D,MNG,40.76755,-111.902653
135,The Park Record,http://www.parkrecord.com/,"1670 Bonanza Drive, Suite 202, Park City, UT 84060",1670 Bonanza Drive, Suite 202,Park City,UT,84060,UTAH,,@Parkrecord,https://twitter.com/Parkrecord,,W,W,MNG,40.662501,-111.500376
136,Bennington Banner,http://www.benningtonbanner.com,"425 Main Street, Bennington, VT 05201",425 Main Street,,Bennington,VT,5201,VERMONT,http://www.facebook.com/benningtonbanner,@banner_news,https://twitter.com/banner_news,,D,D,MNG,42.878213,-73.19633
137,Brattleboro Reformer,http://www.reformer.com/,"62 Black Mountain Road, Brattleboro, VT 05301-9242",62 Black Mountain Road,,Brattleboro,VT, 05301-9242,VERMONT,http://www.facebook.com/brattlebororeformer,@BrattReformer,https://twitter.com/BrattReformer,,D,D,MNG,42.881707,-72.560683
138,The Manchester Journal,http://www.manchesterjournal.com/,"51 Memorial Ave., Manchester Center, VT 05255",51 Memorial Ave.,,Manchester Center,VT,5255,VERMONT,http://www.facebook.com/manchesterjournal,@ManJourn,https://twitter.com/ManJourn,,W,W,MNG,43.178076,-73.054032
139,Charleston Daily Mail,http://dailymail.com/,"1001 Virginia St. E., Charleston, WV 25301-2835",1001 Virginia St. E.,,Charleston,WV, 25301-2835,WEST VIRGINIA,http://www.facebook.com/charlestondailymail?ref=ts&fref=ts,@charleywest,https://twitter.com/charleywest,http://webmedia.newseum.org/newseum-multimedia/dfp/jpg15/lg/WV_CDM.jpg,D,D,MNG,38.348017,-81.634413
