asho,Site,URL,Full Street Address,Street address,Suite,City,State,Zip,Group,Brand Facebook URL,Brand Twitter handle,Brand Twitter URL,Newseum front page link KILL/WILL NOT WORK,Daily/Wkly,Frequency,MNG/JRC,"City, State",Marker,lat,lon
82,Four Corners Business Journal,http://www.businessjournals.com/,"201 N. Allen, Farmington, NM 87401",201 N. Allen,,Farmington,NM,87401,NEW MEXICO,,,,,?,,MNG,,,36.732172,-108.207213
64,The News Herald,http://Thenewsherald.com,"One Heritage Drive, Suite 100, Southgate, MI 48195",One Heritage Drive, Suite 100,Southgate,MI,48195,MICHIGAN,http://bit.ly/NewsHeraldMIbrandFB,@NewsHeraldMI,https://twitter.com/NewsHeraldMI,,3/W,W,JRC,"Southgate, MI",small_red,42.210209,-83.224242
62,Daily Tribune,http://Dailytribune.com,"100 Macomb Daily Drive, Mount Clemens, MI 48043",100 Macomb Daily Drive,,Mount Clemens,MI,48043,MICHIGAN,http://bit.ly/DailyTribbrandFB,@dailytrib,https://twitter.com/DailyTrib,,4/w,W,JRC,"Mt. Clemens, MI",small_red,42.599239,-82.862488
21,Colorado Daily,http://www.coloradodaily.com,"5450 Western Ave., Boulder, CO 80301",5450 Western Ave.,,Boulder,CO,80301,COLORADO,http://www.facebook.com/coloradodaily?fref=ts,@coloradodaily,https://twitter.com/coloradodaily,,5/W,D,MNG,,small_red,40.017382,-105.226684
76,Alamogordo Daily News,http://www.alamogordonews.com,"518 24th St., Alamogordo, NM 88310",518 24th St.,,Alamogordo,NM,88310,NEW MEXICO,http://bit.ly/AlamogordoBrandFB,@alamogordonews,https://twitter.com/alamogordonews,,6/W,D,MNG,"Alamogordo, NM",small_blue,32.918396,-105.955231
136,Bennington Banner,http://www.benningtonbanner.com,"425 Main Street, Bennington, VT 05201",425 Main Street,,Bennington,VT,5201,VERMONT,http://www.facebook.com/benningtonbanner,@banner_news,https://twitter.com/banner_news,,D,D,MNG,"Bennington, VT",small_blue,42.8781408,-73.1962308
7,Boulder Daily Camera,http://www.dailycamera.com/,"5450 Western Ave., Boulder, CO 80301",5450 Western Ave.,,Boulder,CO,80301,COLORADO,http://www.facebook.com/dailycamera?ref=ts&fref=ts,@dailycamera,https://twitter.com/dailycamera,,D,D,MNG,"Boulder, CO",small_blue,40.017382,-105.226684
137,Brattleboro Reformer,http://www.reformer.com/,"62 Black Mountain Road, Brattleboro, VT 05301-9242",62 Black Mountain Road,,Brattleboro,VT, 05301-9242,VERMONT,http://www.facebook.com/brattlebororeformer,@BrattReformer,https://twitter.com/BrattReformer,,D,D,MNG,"Brattleboro, VT",small_blue,42.88062,-72.5621199
20,Canon City Daily Record,http://www.canoncitydailyrecord.com/,"701 South 9th St., Canon City, CO 81212",701 South 9th St.,,Canon City,CO,81212,COLORADO,http://www.facebook.com/CanonCityDailyRecord?fref=ts,@CCDR_news,https://twitter.com/CCDR_news,,D,D,MNG,"Canon City, CO",small_blue,38.437142,-105.232593
78,Carlsbad Current-Argus,http://www.currentargus.com,"620 S. Main St., Carlsbad, NM 88221-1629",620 S. Main St.,,Carlsbad,NM, 88221-1629,NEW MEXICO,http://www.facebook.com/pages/Carlsbad-Current-Argus/130211193676772,@CCurrentArgus,https://twitter.com/CCurrentArgus,,D,D,MNG,"Carlsbad, NM",small_blue,32.4142212,-104.2264497
121,Chambersburg Public Opinion,http://www.publicopiniononline.com/,"77 N. 3rd Street, Chambersburg, PA 17201",77 N. 3rd Street,,Chambersburg,PA,17201,PENNSYLVANIA,http://www.facebook.com/publicopinionnews?fref=ts,@PONews,https://twitter.com/PONews,,D,D,MNG,"Chambersburg, PA",small_blue,39.9385777,-77.6567718
139,Charleston Daily Mail,http://dailymail.com/,"1001 Virginia St. E., Charleston, WV 25301-2835",1001 Virginia St. E.,,Charleston,WV, 25301-2835,WEST VIRGINIA,http://www.facebook.com/charlestondailymail?ref=ts&fref=ts,@charleywest,https://twitter.com/charleywest,http://webmedia.newseum.org/newseum-multimedia/dfp/jpg15/lg/WV_CDM.jpg,D,D,MNG,,,38.347859,-81.6344562
1,Contra Costa Times,http://www.contracostatimes.com,"2640 Shadelands Drive, Walnut Creek, CA 94598",2640 Shadelands Drive,,Walnut Creek,CA,94598,BANG - Bay Area News Group,https://www.facebook.com/contracostatimes?fref=ts,@CCTimes,https://twitter.com/CCTimes,http://webmedia.newseum.org/newseum-multimedia/dfp/jpg15/lg/CA_CCT.jpg,D,D,MNG,"Walnut Creek, CA",small_blue,37.928424,-122.023764
41,Daily Breeze,http://www.dailybreeze.com/,"21250 Hawthorne Blvd, Suite 170, Torrance, CA 90503",21250 Hawthorne Blvd, Suite 170,Torrance,CA,90503,LANG - Los Angeles News Group,http://www.facebook.com/dailybreeze?ref=ts&fref=ts,@DailyBreezeNews,https://twitter.com/DailyBreezeNews,http://webmedia.newseum.org/newseum-multimedia/dfp/jpg15/lg/CA_DB.jpg,D,D,MNG,"TORRANCE, CA",small_blue,33.8329619,-118.3528499
96,Daily Democrat,http://www.dailydemocrat.com/,"711 Main St., Woodland, CA 95695",711 Main St.,,Woodland,CA,95695,NORCAL - Northern California,http://www.facebook.com/dailydemocrat?ref=ts&fref=ts,@woodlandnews,https://twitter.com/woodlandnews,,D,D,MNG,"Woodland, CA",small_blue,38.6774448,-121.7713758
83,Daily Freeman,http://Dailyfreeman.com,"79 Hurley Ave., Kingston, NY 12401",79 Hurley Ave.,,Kingston,NY,12401,NEW YORK,http://www.facebook.com/Freeman,@dailyfreeman,https://twitter.com/DailyFreeman,,D,D,JRC,"Kingston, NY",small_blue,41.937761,-74.028575
108,Daily Local News,http://Dailylocal.com,"250 North Bradford Avenue, West Chester, PA 19382",250 North Bradford Avenue,,West Chester,PA,19382,PENNSYLVANIA,http://www.facebook.com/dailylocalnews,@Wcdailylocal,https://twitter.com/wcdailylocal,http://webmedia.newseum.org/newseum-multimedia/dfp/jpg15/lg/PA_DLN.jpg,D,D,JRC,"West Chester, PA",small_blue,39.9584509,-75.6190589
112,Delaware County Daily Times,http://Delcotimes.com,"500 Mildred Ave., Primos PA 19018",500 Mildred Ave.,,Primos,PA,19018,PENNSYLVANIA,http://www.facebook.com/pages/Delaware-County-Daily-Times/146420865744,@delcotimes,https://twitter.com/delcotimes,,D,D,JRC,"Primos, PA",small_blue,39.919745,-75.300852
68,Detroit News,http://www.detroitnews.com,"615 W. Lafayette Blvd., Detroit, MI 48220",615 W. Lafayette Blvd.,,Detroit,MI,48220,MICHIGAN,http://bit.ly/DetNewsbrandFB,@detnews,https://twitter.com/detnews,http://webmedia.newseum.org/newseum-multimedia/dfp/jpg15/lg/MI_DN.jpg,D,D,MNG,"Detroit, MI",small_blue,42.328418,-83.054003
90,Enterprise-Record,http://www.chicoer.com/,"400 E. Park Ave., Chico, CA 95928",400 E. Park Ave.,,Chico,CA,95928,NORCAL - Northern California,http://www.facebook.com/chico.enterpriserecord?fref=ts,@ChicoER,https://twitter.com/ChicoER,http://webmedia.newseum.org/newseum-multimedia/dfp/jpg15/lg/CA_ER.jpg,D,D,MNG,"Chico, CA",small_blue,39.7157833,-121.8065254
16,Fort Morgan Times,http://www.fortmorgantimes.com/,"329 Main St., Fort Morgan, CO 80701",329 Main St.,,Fort Morgan,CO,80701,COLORADO,http://www.facebook.com/fortmorgantimes?ref=ts&fref=ts,@FortMorganTimes,https://twitter.com/FortMorganTimes,,D,D,MNG,"Fort Morgan, CO",small_blue,40.2502522,-103.8015174
49,Impacto USA,http://www.impactousa.com/,"21250 Hawthorne Blvd, Suite 170, Torrance, CA 90503",21250 Hawthorne Blvd, Suite 170,Torrance,CA,90503,LANG - Los Angeles News Group,http://www.facebook.com/pages/Impacto-USA/228940803824119?fref=ts,@RedlandsNews,https://twitter.com/RedlandsNews,,D,D,MNG,,small_blue,33.8329619,-118.3528499
42,Inland Valley Daily Bulletin,http://www.dailybulletin.com/,"2041 East Fourth St., Ontario, CA 91764",2041 East Fourth St.,,Ontario,CA,91764,LANG - Los Angeles News Group,http://www.facebook.com/dailybulletin?fref=ts,@ivdailybulletin,https://twitter.com/ivdailybulletin,,D,D,MNG,"ONTARIO, CA",small_blue,34.0776855,-117.6070613
2,Inside Bay Area,http://www.insidebayarea.com/,"7677 Oakport St., Suite 950, Oakland, CA 94621",7677 Oakport St., Suite 950,Oakland,CA,94621,BANG - Bay Area News Group,https://www.facebook.com/oaklandtribune,@insidebayarea,https://twitter.com/insidebayarea,http://webmedia.newseum.org/newseum-multimedia/dfp/jpg15/lg/CA_OT.jpg,D,D,MNG,"Oakland, CA",small_blue,37.746747,-122.203545
95,Lake County Record-Bee,http://www.record-bee.com/,"2150 South Main St., Lakeport, CA 95453",2150 South Main St.,,Lakeport,CA,95453,NORCAL - Northern California,http://www.facebook.com/recordbee?fref=ts,@RecordBee,https://twitter.com/RecordBee,,D,D,MNG,"Lakeport, CA",small_blue,39.025557,-122.914938
75,Las Cruces Sun-News,http://www.lcsun-news.com/,"715 E. Idaho, Building 4, Suites C & D,  Las Cruces, NM 88004",715 E. Idaho,"Building 4, Suites C & D",Las Cruces,NM,88004,NEW MEXICO,http://bit.ly/LasCrucesbrandFB,@CrucesSunNews,https://twitter.com/CrucesSunNews,,D,D,MNG,"Las Cruces, NM",small_blue,32.1536278,-106.9598571
124,Lebanon Daily News,http://www.ldnews.com/,"718 Poplar St., Lebanon, PA 17042",718 Poplar St.,,Lebanon,PA,17042,PENNSYLVANIA,https://www.facebook.com/ldnews,@LDNews,https://twitter.com/LDNews,,D,D,MNG,"Lebanon, PA",small_blue,40.330461,-76.422676
17,Longmont Times-Call,http://www.timescall.com/,"350 Terry St., Longmont, CO 80501",350 Terry St.,,Longmont,CO,80501,COLORADO,http://www.facebook.com/LongmontTimesCall?fref=ts,@TimesCall,https://twitter.com/TimesCall,,D,D,MNG,"Longmont, CO",small_blue,40.165248,-105.104978
40,Los Angeles Daily News,http://www.dailynews.com,"21860 Barbank Blvd, Suite 200, Woodland Hills, CA 91367",21860 Barbank Blvd, Suite 200,Woodland Hills,CA,91367,LANG - Los Angeles News Group,http://www.facebook.com/ladailynews?fref=ts,@ladailynews,https://twitter.com/ladailynews,http://webmedia.newseum.org/newseum-multimedia/dfp/jpg15/lg/CA_DN.jpg,D,D,MNG,"VAN NUYS, CA Los Angeles, CA?",small_blue,34.171272,-118.602294
18,Loveland Reporter-Herald,http://www.reporterherald.com/,"201 East 5th St., Loveland, CO 80537",201 East 5th St.,,Loveland,CO,80537,COLORADO,http://www.facebook.com/reporterherald?fref=ts,@reporterherald,https://twitter.com/reporterherald,http://webmedia.newseum.org/newseum-multimedia/dfp/jpg15/lg/CO_LRH.jpg,D,D,MNG,"Loveland, CO",small_blue,40.3966142,-105.0743528
54,Lowell Sun,http://www.lowellsun.com/,"491 Dutton St., Lowell, MA 01854",491 Dutton St.,,Lowell,MA,1854,MASSACHUSSETS,facebook.com/LowellSun,@LowellSunNews,https://twitter.com/LowellSunNews,,D,D,MNG,"Lowell, MA",small_blue,42.6415899,-71.3166034
4,Marin Independent Journal,http://www.marinij.com/,"4000 Civic Center Drive, Suite 301, San Rafael, CA 94903",4000 Civic Center Drive, Suite 301,San Rafael,CA,94903,BANG - Bay Area News Group,https://www.facebook.com/marinijfan?fref=ts,@marinij,https://twitter.com/marinij,,D,D,MNG,"NOVATO, CA",small_blue,38.00518,-122.536727
91,Monterey County Herald,http://www.montereyherald.com/,"8 Upper Ragsdale Drive, Monterey, CA 93940",8 Upper Ragsdale Drive,,Monterey,CA,93940,NORCAL - Northern California,http://www.facebook.com/montereycountyherald?fref=ts,@MontereyHerald,https://twitter.com/MontereyHerald,http://webmedia.newseum.org/newseum-multimedia/dfp/jpg15/lg/CA_MCH.jpg,D,D,MNG,"Monterey, CA",small_blue,36.576431,-121.811256
106,Morning Journal,http://Morningjournal.com,"1657 Broadway Ave., Lorain, OH 44052",1657 Broadway Ave.,,Lorain,OH,44052,OHIO,http://www.facebook.com/MorningJournal,@morningjournal,https://twitter.com/MorningJournal,http://webmedia.newseum.org/newseum-multimedia/dfp/jpg15/lg/OH_TMJ.jpg,D,D,JRC,"Lorain, OH",small_blue,41.456123,-82.166192
24,New Haven Register,http://nhregister.com,"40 Sargent Drive, New Haven, CT 06511",40 Sargent Drive,,New Haven,CT,6511,CONNECTICUT,https://www.facebook.com/RegisterCitizen?fref=ts#!/NewHavenRegister?fref=ts,@nhregister,https://twitter.com/nhregister,http://webmedia.newseum.org/newseum-multimedia/dfp/jpg15/lg/CT_NHR.jpg,D,D,JRC,"New Haven, CT",small_blue,41.287185,-72.927784
57,North Adams Transcript,http://www.thetranscript.com/,"85 Main St., Suite 2, North Adams, MA 01247",85 Main St., Suite 2,North Adams,MA,1247,MASSACHUSSETS,www.facebook.com/natranscript,@NATranscript,https://twitter.com/NATranscript,,D,D,MNG,"North Adams, MA",small_blue,42.6992383,-73.1125427
86,Oneida Daily Dispatch,http://Oneidadispatch.com,"130 Broad Street, Oneida, NY 13421",130 Broad Street,,Oneida,NY,13421,NEW YORK,http://www.facebook.com/pages/Oneida-Daily-Dispatch/298810515781,@oneidadispatch,https://twitter.com/Oneidadispatch,,D,D,JRC,"Oneida, NY",small_blue,43.093742,-75.65364
100,Paradise Post,http://www.paradisepost.com/,"5399 Clark Road, Paradise, CA 95969",5399 Clark Road,,Paradise,CA,95969,NORCAL - Northern California,http://www.facebook.com/ParadisePost?fref=ts,@ParadisePost,https://twitter.com/ParadisePost,,D,D,MNG,"Paradise, CA",small_blue,39.7439835,-121.6080609
45,Pasadena Star-News,http://www.pasadenastarnews.com/,"911 East Colorado Blvd, Pasadena, CA 91106",911 East Colorado Blvd,,Pasadena,CA,91106,LANG - Los Angeles News Group,http://www.facebook.com/pasadenastarnews?fref=ts,@PasStarNews,https://twitter.com/PasStarNews,,D,D,MNG,"PASADENA, CA",small_blue,34.14627,-118.131497
43,Press-Telegram,http://www.presstelegram.com/,"300 Oceangate, Long Beach, CA 90844",300 Oceangate,,Long Beach,CA,90844,LANG - Los Angeles News Group,http://www.facebook.com/presstelegram?fref=ts,@presstelegram,https://twitter.com/presstelegram,http://webmedia.newseum.org/newseum-multimedia/dfp/jpg15/lg/CA_PT.jpg,D,D,MNG,"LONG BEACH, CA",small_blue,33.766461,-118.2002896
101,Red Bluff Daily News,http://www.redbluffdailynews.com/,"545 Diamond Ave., Red Bluff, CA 96080",545 Diamond Ave.,,Red Bluff,CA,96080,NORCAL - Northern California,http://www.facebook.com/rbdailynews?fref=ts,@redbluffnews,https://twitter.com/redbluffnews,,D,D,MNG,"Red Bluff, CA",small_blue,40.16333,-122.226937
48,Redlands Daily Facts,http://www.redlandsdailyfacts.com/,"700 Brookside Ave., Redlands, CA 92373",700 Brookside Ave.,,Redlands,CA,92373,LANG - Los Angeles News Group,http://www.facebook.com/RedlandsDailyFacts?fref=ts,@ImpactoUSA,https://twitter.com/ImpactoUSA,,D,D,MNG,,small_blue,34.052606,-117.191675
102,Redwood Times,http://www.redwoodtimes.com/,"442 Maple Lane, Garberville, CA 95542",442 Maple Lane,,Garberville,CA,95542,NORCAL - Northern California,,,,,D,D,MNG,,small_blue,40.1000316,-123.7938863
26,Register Citizen,http://registercitizen.com,"59 Field St., Torrington, CT 06790",59 Field St.,,Torrington,CT,6790,CONNECTICUT,https://www.facebook.com/RegisterCitizen?fref=ts,@RegisterCitizen,https://twitter.com/RegisterCitizen,,D,D,JRC,"Torrington, CT",small_blue,41.807289,-73.126064
44,San Gabriel Valley Tribune,http://www.sgvtribune.com/,"1210 N. Azusa Canyon Rd, West Covina, CA 91790",1210 N. Azusa Canyon Rd,,West Covina,CA,91790,LANG - Los Angeles News Group,http://www.facebook.com/sgvtribune?fref=ts,@SGVTribune,https://twitter.com/SGVTribune,,D,D,MNG,"WEST COVINA, CA",small_blue,34.0917086,-117.9430023
3,San Jose Mercury News,http://www.mercurynews.com,"750 Ridder Park Drive, San Jose, CA 95190",750 Ridder Park Drive,,San Jose,CA,95190,BANG - Bay Area News Group,https://www.facebook.com/mercurynews,@mercnews,https://twitter.com/mercnews,http://webmedia.newseum.org/newseum-multimedia/dfp/jpg15/lg/CA_SJMN.jpg,D,D,MNG,"San Jose, CA",small_blue,37.3778683,-121.9027002
5,Santa Cruz Sentinel,http://www.santacruzsentinel.com/,"1800 Green Hills Road, Suite 210, Scotts Valley, CA 95066",1800 Green Hills Road, Suite 210,Scotts Valley,CA,95066,BANG - Bay Area News Group,https://www.facebook.com/SCSentinel?fref=ts,@scsentinel,https://twitter.com/scsentinel,http://www.newseum.org/todaysfrontpages/hr.asp?fpVname=CA_SCS&ref_pge=lst,D,D,MNG,"SANTA CRUZ, CA",small_blue,37.052622,-122.007933
84,Saratogian,http://Saratogian.com,"20 Lake Avenue, Saratoga Springs, NY 12866",20 Lake Avenue,,Saratoga Springs,NY,12866,NEW YORK,https://www.facebook.com/Saratogian,@SaratogianNews,https://twitter.com/SaratogianNews,,D,D,JRC,"Saratoga Springs, NY",small_blue,43.0824382,-73.7836164
55,Sentinel & Enterprise,http://www.sentinelandenterprise.com/,"808 Main St., Fitchburg, MA 01420",808 Main St.,,Fitchburg,MA,1420,MASSACHUSSETS,facebook.com/SentinelandEnterprise,@SentandEnt,https://twitter.com/SentandEnt,,D,D,MNG,"Fitchburg, MA",small_blue,42.5849049,-71.8046966
71,St. Paul Pioneer Press,http://www.twincities.com/,"345 Cedar Street, St. Paul, MN 55101",345 Cedar Street,,St. Paul,MN,55101,MINNESOTA,http://bit.ly/PiPressbrandFB,@PioneerPress,https://twitter.com/PioneerPress,http://webmedia.newseum.org/newseum-multimedia/dfp/jpg15/lg/MN_PP.jpg,D,D,MNG,"St. Paul, MN",small_blue,44.94571,-93.093205
12,Sterling Journal-Advocate,http://www.journal-advocate.com/,"504 North 3rd St., Sterling, CO 80751",504 North 3rd St.,,Sterling,CO,80751,COLORADO,http://www.facebook.com/journaladvocate?fref=ts,@SterlingJA,https://twitter.com/SterlingJA,,D,D,MNG,"Sterling, CO",small_blue,40.628649,-103.20446
53,The Berkshire Eagle,http://www.berkshireeagle.com/,"75 South Church St., Pittsfield, MA 01201",75 South Church St.,,Pittsfield,MA,1201,MASSACHUSSETS,http://www.facebook.com/berkshire.eagle,@BerkshireEagle,https://twitter.com/BerkshireEagle,,D,D,MNG,"Pittsfield, MA",small_blue,42.446654,-73.261458
77,The Daily Times,http://www.daily-times.com,"201 North Allen, Farmington, NM 87499",201 North Allen,,Farmington,NM,87499,NEW MEXICO,http://bit.ly/FDTbrandFB,@TheDailyTimes,https://twitter.com/TheDailyTimes,http://bit.ly/FDTNewseum,D,D,MNG,"Farmington, NM",small_blue,36.732172,-108.207213
6,The Denver Post,http://www.denverpost.com,"101 W. Colfax Ave., Suite 600, Denver, CO 80202",101 W. Colfax Ave., Suite 600,Denver,CO,80202,COLORADO,http://www.facebook.com/denverpost,@denverpost,https://twitter.com/denverpost,http://webmedia.newseum.org/newseum-multimedia/dfp/jpg15/lg/CO_DP.jpg,D,D,MNG,"Denver, CO",small_blue,39.740854,-104.988134
123,The Evening Sun,http://www.eveningsun.com/,"135 Baltimore St., Hanover, PA 17331",135 Baltimore St.,,Hanover,PA,17331,PENNSYLVANIA,https://www.facebook.com/hanovereveningsun,@theeveningsun,https://twitter.com/theeveningsun,,D,D,MNG,"Hanover, PA",small_blue,39.7982723,-76.980894
60,The Macomb Daily,http://Macombdaily.com,"100 Macomb Daily Drive, Mount Clemens, MI 48043",100 Macomb Daily Drive,,Mount Clemens,MI,48043,MICHIGAN,http://bit.ly/MDbrandFB,@macombdaily,https://twitter.com/macombdaily,,D,D,JRC,"Mt. Clemens, MI",small_blue,42.599239,-82.862488
109,The Mercury,http://Pottsmerc.com,"24 North Hanover Street, Pottstown, PA 19464",24 North Hanover Street,,Pottstown,PA,19464,PENNSYLVANIA,http://www.facebook.com/pottstown.mercury,@MercuryX,https://twitter.com/MercuryX,http://webmedia.newseum.org/newseum-multimedia/dfp/jpg15/lg/PA_MER.jpg,D,D,JRC,"Pottstown, PA",small_blue,40.2466464,-75.6500179
25,The Middletown Press,http://middletownpress.com,"386 Main St., 4th Floor, Middletown, CT 06457",386 Main St., 4th Floor,Middletown,CT,6457,CONNECTICUT,https://www.facebook.com/RegisterCitizen?fref=ts#!/middletownpress?fref=ts,@MiddletownPress,https://twitter.com/Middletownpress,http://webmedia.newseum.org/newseum-multimedia/dfp/jpg15/lg/CT_MP.jpg,D,D,JRC,"Middletown, CT",small_blue,41.5615288,-72.6499552
61,The Morning Sun,http://Themorningsun.com,"711 W. Pickard St., Mt. Pleasant, MI 48858",711 W. Pickard St.,,Mt. Pleasant,MI,48858,MICHIGAN,http://bit.ly/MSbrandFB,@MPMorningSun,https://twitter.com/MPMorningSun,,D,D,JRC,"Mt Pleasant, MI",small_blue,43.6117579,-84.7845457
105,The News-Herald,http://news-herald.com,"7085 Mentor Avenue, Willoughby, OH 44094",7085 Mentor Avenue,,Willoughby,OH,44094,OHIO,http://www.facebook.com/pages/Willoughby-OH/The-News-Herald/87827393092,@newsheraldinoh,https://twitter.com/newsheraldinoh,http://webmedia.newseum.org/newseum-multimedia/dfp/jpg15/lg/OH_NH.jpg,D,D,JRC,"Willoughby, OH",small_blue,41.648038,-81.388859
59,The Oakland Press,http://Theoaklandpress.com,"48 W. Huron Street, Pontiac, MI 48342",48 W. Huron Street,,Pontiac,MI,48342,MICHIGAN,http://bit.ly/OPbrandFB,@TheOaklandPress,https://twitter.com/TheOaklandPress,,D,D,JRC,"Pontiac, MI",small_blue,42.639081,-83.294608
85,The Record,http://Troyrecord.com,"501 Broadway, Troy, NY 12180",501 Broadway,,Troy,NY,12180,NEW YORK,http://www.facebook.com/troyrecord,@TroyRecord,https://twitter.com/troyrecord,,D,D,JRC,"Troy, NY",small_blue,42.7309548,-73.6877169
92,The Reporter ,http://www.thereporter.com,"916 Cotting Lane, Vacaville, CA 95688",916 Cotting Lane,,Vacaville,CA,95688,NORCAL - Northern California,http://www.facebook.com/thereporter?fref=ts,@vacareporter,https://twitter.com/vacareporter,,D,D,MNG,,small_blue,38.395761,-121.953658
111,The Reporter,http://Thereporteronline.com,"307 Derstine Ave., Lansdale, PA 19446",307 Derstine Ave.,,Lansdale,PA,19446,PENNSYLVANIA,http://www.facebook.com/lansreporter,@lansreporter,https://twitter.com/LansReporter,,D,D,JRC,"Lansdale, PA",small_blue,40.242788,-75.287631
46,The Sun,http://www.sbsun.com/,"4030 North Georgia Blvd, San Bernardino, CA 92407",4030 North Georgia Blvd,,San Bernardino,CA,92407,LANG - Los Angeles News Group,http://www.facebook.com/sbsun?fref=ts,@sbsun,https://twitter.com/sbsun,http://webmedia.newseum.org/newseum-multimedia/dfp/jpg15/lg/CA_TS.jpg,D,D,MNG,"SAN BERNARDINO, CA",small_blue,34.162375,-117.338341
103,The Ukiah Daily Journal,http://www.ukiahdailyjournal.com/,"590 South School St., Ukiah, CA 95482",590 South School St.,,Ukiah,CA,95482,NORCAL - Northern California,http://www.facebook.com/pages/The-Ukiah-Daily-Journal/79374461327?ref=ts&fref=ts,@UDJnews,https://twitter.com/UDJnews,,D,D,MNG,"Ukiah, CA",small_blue,39.14564,-123.208215
120,The York Dispatch,http://www.yorkdispatch.com/,"205 N. George St., York, PA 17401",205 N. George St.,,York,PA,17401,PENNSYLVANIA,https://www.facebook.com/YorkDispatch,@YorkDispatch,https://twitter.com/YorkDispatch,http://webmedia.newseum.org/newseum-multimedia/dfp/jpg15/lg/PA_YD.jpg,D,D,MNG,"York, PA",small_blue,39.965508,-76.728635
110,Times Herald,http://Timesherald.com,"410 Markley Street, Norristown, PA 19401",410 Markley Street,,Norristown,PA,19401,PENNSYLVANIA,http://www.facebook.com/pages/Norristown-PA/The-Times-Herald/52255693644,@TimesHeraldPA,https://twitter.com/TimesHeraldPA,,D,D,JRC,"Norristown, PA",small_blue,40.1173524,-75.3480246
93,Times-Herald,http://www.timesheraldonline.com/,"440 Curtola Parkway, Vallejo CA 94590",440 Curtola Parkway,,Vallejo,CA,94590,NORCAL - Northern California,http://www.facebook.com/timesherald?fref=ts,@vjotimesherald,https://twitter.com/vjotimesherald,,D,D,MNG,"Vallejo, CA",small_blue,38.097595,-122.252328
94,Times-Standard,http://www.times-standard.com/,"930 Sixth St., Eureka, CA 95501",930 Sixth St.,,Eureka,CA,95501,NORCAL - Northern California,http://www.facebook.com/TimesStandard?fref=ts,@eurekaTS,https://twitter.com/eurekaTS,,D,D,MNG,"Eureka, CA",small_blue,40.801373,-124.160721
72,Trentonian,http://Trentonian.com,"600 Perry Street, Trenton, NJ 08618",600 Perry Street,,Trenton,NJ,8618,NEW JERSEY,http://www.facebook.com/pages/Trenton-NJ/Trentoniancom/108200919211582,@Trentonian,https://twitter.com/Trentonian,,D,D,JRC,"Trenton, NJ",small_blue,40.2258229,-74.7543755
47,Whittier Daily News,http://www.whittierdailynews.com,"7612 Greenleaf Ave., Whittier, CA 90602",7612 Greenleaf Ave.,,Whittier,CA,90602,LANG - Los Angeles News Group,http://www.facebook.com/whittierdailynews?fref=ts,@WhittierNews,https://twitter.com/WhittierNews,,D,D,MNG,"Whitier, CA",small_blue,33.973056,-118.037009
122,York Daily Record,http://www.ydr.com/,"1891 Loucks Road, York, PA 17408",1891 Loucks Road,,York,PA,17408,PENNSYLVANIA,https://www.facebook.com/YorkDailyRecord,@ydrcom,https://twitter.com/ydrcom,,D,D,MNG,"York, PA",small_blue,39.973833,-76.775215
31,Connecticut Magazine,http://Connecticutmag.com,"40 Sargent Drive, New Haven, CT 06511",40 Sargent Drive,,New Haven,CT,6511,CONNECTICUT,https://www.facebook.com/RegisterCitizen?fref=ts#!/pages/Connecticut-Magazine/285485330442?fref=ts,@connecticutmag @theCTbride,http://bit.ly/113brY7,,M,W,JRC,"New Haven, CT",small_red,41.287185,-72.927784
107,El Latino Expreso,http://www.lorainlatino.com/,"1657 Broadway Avenue, Lorain, OH 44052",1657 Broadway Avenue,,Lorain,OH,44052,OHIO,None,None,None,,O,W,JRC,"Lorain, OH",small_red,41.456123,-82.166192
125,La Voz,http://www.lavozpa.com/,"410 Markley Street, Norristown, PA 19401",410 Markley Street,,Norristown,PA,19401,PENNSYLVANIA,,,,,O,W,JRC,"Norristown, PA",small_red,40.1173524,-75.3480246
36,Litchfield County Mom,http://litchfieldcountymom.com,"59 Field St., Torrington, CT 06790",59 Field St.,,Torrington,CT,6790,CONNECTICUT,https://www.facebook.com/#!/LitchfieldCountyMom?fref=ts,@litchfieldmom,https://twitter.com/litchfieldmom,,O,W,JRC,"Litchfield, CT",,41.807289,-73.126064
39,Passport Magazine,http://Passport-mag.com,"59 Field St., Torrington, CT 06790",59 Field St.,,Torrington,CT,6790,CONNECTICUT,https://www.facebook.com/#!/PASSPORTMag,@PASSPORTmag,https://twitter.com/PASSPORTmag,,Q,W,JRC,"Litchfield, CT",,41.807289,-73.126064
67,Advisor and Source Newspapers,http://Sourcenewspapers.com,"48075 Van Dyke, Shelby Twp, MI 48317",48075 Van Dyke,,Shelby Twp,MI,48317,MICHIGAN,http://bit.ly/SOURCEbrandFB,@advisorsource,https://twitter.com/advisorsource,,W,W,JRC,"Shelby Twp, MI",small_red,42.6479141,-83.0332054
8,Akron News Reporter,http://www.akronnewsreporter.com/,"69 Main Ave., Akron, CO 80720",69 Main Ave.,,Akron,CO,80720,COLORADO,http://www.facebook.com/AkronNewsReporter,@AkronNewsReport,https://twitter.com/AkronNewsReport,,W,W,MNG,"Akron, CO",small_red,40.1587715,-103.212797
118,Berks-Mont News,http://Berksmontnews.com,"24 N. Hanover St., Pottstown, PA 19464",24 N. Hanover St.,,Pottstown,PA,19464,PENNSYLVANIA,http://bit.ly/Uu7BVn,@berksmontnews,https://twitter.com/berksmontnews,,W,W,JRC,"Pottstown, PA",small_red,40.2466464,-75.6500179
9,Broomfield Enterprise,http://www.broomfieldenterprise.com/,"3400 Industrial Lane, Suite 2, Broomfield, CO 80020",3400 Industrial Lane, Suite 2,Broomfield,CO,80020,COLORADO,http://www.facebook.com/BroomfieldEnterprise?fref=ts,@bfld_enterprise,https://twitter.com/bfld_enterprise,,W,W,MNG,"Broomfield, CO",small_red,39.9229621,-105.1080061
10,Brush News Tribune,http://www.brushnewstribune.com/,"109 Clayton St., Brush, CO 80723",109 Clayton St.,,Brush,CO,80723,COLORADO,http://www.facebook.com/BrushNewsTribune?fref=ts,@BrushNewsTrib,https://twitter.com/BrushNewsTrib,,W,W,MNG,,small_red,40.2546568,-103.6229744
87,CN Weekly (Community News),http://CNweekly.com,"20 Lake Avenue, Saratoga Springs, NY 12866",20 Lake Avenue,,Saratoga Springs,NY,12866,NEW YORK,www.facebook.com/CommunityNewsNY,@cnweekly,https://twitter.com/CNWeekly,,W,W,JRC,"Saratoga Springs, NY",small_red,43.0824382,-73.7836164
19,Colorado Hometown Weekly,http://www.coloradohometownweekly.com/,"3400 Industrial Lane, Suite 2, Broomfiield, CO 80020",3400 Industrial Lane, Suite 2,Broomfiield,CO,80020,COLORADO,http://www.facebook.com/coloradohometownweekly?fref=ts,@CoHoWeekly,https://twitter.com/CoHoWeekly,,W,W,MNG,,small_red,39.9229621,-105.1080061
117,Delaware County News Network,http://Delconewsnetwork.com,"1914 Parker Avenue, Holmes, PA 19043",1914 Parker Avenue,,Holmes,PA,19043,PENNSYLVANIA,http://www.facebook.com/pages/Holmes-PA/Delco-News-Network/341820350090,@DelcoNewsNet,https://twitter.com/DelcoNewsNet,,W,W,JRC,"Holmes, PA",small_red,39.8955881,-75.3139716
34,Dolphin News,http://Dolphin-news.com,"Naval Submarine Base, NLON PAO, New London, CT 06349",Naval Submarine Base, NLON PAO,New London,CT,6349,CONNECTICUT,http://www.facebook.com/pages/Dolphin-news/136348236420020,None,None,,W,W,JRC,"New London, CT",small_red,41.39468,-72.09343
74,El Latino Expreso,http://www.njexpreso.com/,"600 Perry Street, Trenton, NJ 08618",600 Perry Street,,Trenton,NJ,8618,NEW JERSEY,http://www.facebook.com/ElLatinoExpreso?fref=ts,,,,W,W,JRC,,small_red,40.2258229,-74.7543755
11,Estes Park Trail-Gazette,http://www.eptrail.com/,"251 Moraine Ave., Estes Park, CO 80517",251 Moraine Ave.,,Estes Park,CO,80517,COLORADO,http://www.facebook.com/eptrail?fref=ts,@EPTrailGazette,https://twitter.com/EPTrailGazette,,W,W,MNG,"Estes Park, CO",small_red,40.374029,-105.523881
38,Foothills Media Group,http://Foothillsmediagroup.com,"59 Field St., Torrington, CT 06790",59 Field St.,,Torrington,CT,6790,CONNECTICUT,https://www.facebook.com/#!/foothills.staff?fref=ts,@theavonnews @thecantonnews @thegranbynews @litchfieldweb @thesimsburynews @thomastonxpress,http://bit.ly/SspgMs,,W,W,JRC,"Torrington, CT",,41.807289,-73.126064
97,Fort Bragg Advocate News,http://www.advocate-news.com/,"450 North Franklin St., Fort Bragg, CA 95437",450 North Franklin St.,,Fort Bragg,CA,95437,NORCAL - Northern California,http://www.facebook.com/FortBraggAdvocateNews?fref=ts,@FBAdvocateNews,https://twitter.com/FBAdvocateNews,,W,W,MNG,"Fort Bragg, CA",small_red,39.446597,-123.804001
70,Grand Traverse Insider,http://www.morningstarpublishing.com/grand_traverse_insider/,"410 South Union Street, Traverse City, MI 49684",410 South Union Street,,Traverse City,MI,49684,MICHIGAN,http://bit.ly/GTIbrandFB,@TheGTInsider,https://twitter.com/TheGTInsider,,W,W,JRC,"Traverse City, MI",,44.7601106,-85.6238214
63,Heritage Newspapers West,http://Heritage.com,"106 West Michigan Avenue, Saline, MI 48176",106 West Michigan Avenue,,Saline,MI,48176,MICHIGAN,http://bit.ly/HeritageFBpages,"@A2Journal, @SalineMilanNews, @manchenterprise, @YpsiCourier, @BellevilleView, @chelseadexter",http://bit.ly/Ue0QEX,,W,W,JRC,"Saline, MI",small_red,42.1665674,-83.781989
29,Housatonic Times,http://Housatonictimes.com,"59 Field St., Torrington, CT 06790",59 Field St.,,Torrington,CT,6790,CONNECTICUT,https://www.facebook.com/RegisterCitizen?fref=ts#!/HousatonicTimes?fref=ts,@housatonictimes,https://twitter.com/HousatonicTimes,,W,W,JRC,"Torrington, CT",small_red,41.807289,-73.126064
140,Ile Camera,http://www.thenewsherald.com/ile_camera/,"One Heritage Drive, Suite 100, Southgate, MI 48195",One Heritage Drive, Suite 100,Southgate,MI,48195,MICHIGAN,http://www.facebook.com/pages/The-Ile-Camera/10150092236120655?ref=ts&fref=ts,@IleCamera,https://twitter.com/IleCamera,,W,W,JRC,"Southgate, MI",small_red,42.210209,-83.224242
13,Julesburg Advocate,http://www.julesburgadvocate.com/,"108 Cedar St., Julesburg, CO 80737",108 Cedar St.,,Julesburg,CO,80737,COLORADO,http://www.facebook.com/JulesburgAdvocate?fref=ts,@JlsburgAdvocate,https://twitter.com/JlsburgAdvocate,,W,W,MNG,"Julesberg, CO",small_red,40.9865819,-102.2623662
14,Lamar Ledger,http://www.lamarledger.com/,"310 South 5th St., Lamar, CO 81052",310 South 5th St.,,Lamar,CO,81052,COLORADO,http://www.facebook.com/lamarledger?fref=ts,@LamarLedger,https://twitter.com/LamarLedger,,W,W,MNG,"Lamar, CO",small_red,38.0869716,-102.6205334
89,Las Noticias,http://www.lasnoticiasny.com/,"79 Hurley Avenue, Kingston, NY 12401",79 Hurley Avenue,,Kingston,NY,12401,NEW YORK,,,,,W,W,JRC,"Kingston, NY",small_red,41.937761,-74.028575
27,Litchfield County Times,http://countytimes.com,"59 Field St., Torrington, CT 06790",59 Field St.,,Torrington,CT,6790,CONNECTICUT,https://www.facebook.com/#!/TheLitchfieldCtyTimes?fref=ts,@thelct,https://twitter.com/thelct,,W,W,JRC,"Litchfield, CT",small_red,41.807289,-73.126064
22,Longmont Weekly,http://www.longmontweekly.com,"1067 South Hover St., Unit E, Longmont, CO 80501",1067 South Hover St., Unit E,Longmont,CO,80501,COLORADO,http://www.facebook.com/LongmontWeekly?fref=ts,@LongmontWeekly,https://twitter.com/LongmontWeekly,,W,W,MNG,"Longmont, CO",small_red,40.1482512,-105.1311917
113,Mainline Media News,http://Mainlinemedianews.com,"311 East Lancaster Ave., Ardmore, PA 19003",311 East Lancaster Ave.,,Ardmore,PA,19003,PENNSYLVANIA,http://www.facebook.com/pages/Main-Line-Media-News/271581712275,@MLmedianews,https://twitter.com/MLMediaNews,,W,W,JRC,"Ardmore, PA",small_red,40.002786,-75.279328
98,Mendocino Beacon,http://www.mendocinobeacon.com/,"450 North Franklin St., Fort Bragg, CA 95437",450 North Franklin St.,,Fort Bragg,CA,95437,NORCAL - Northern California,http://www.facebook.com/MendocinoBeacon?fref=ts,@MendocinoBeacon,https://twitter.com/MendocinoBeacon,,W,W,MNG,"Menocino, CA",small_red,39.446597,-123.804001
35,Milford-Orange Bulletin,http://Ctbulletin.com,"40 Sargent Drive, New Haven, CT 06511",40 Sargent Drive,,New Haven,CT,6511,CONNECTICUT,https://www.facebook.com/CTBulletin,@CTBulletin,https://twitter.com/CTBulletin,,W,W,JRC,"New Haven, CT",,41.287185,-72.927784
30,Minuteman News Center,http://Minutemannewscenter.com,"40 Sargent Drive, New Haven, CT 06511",40 Sargent Drive,,New Haven,CT,6511,CONNECTICUT,http://bit.ly/TvTlul,@fairfieldminute & @westportminute,http://bit.ly/113abED,,W,W,JRC,"New Haven, CT",small_red,41.287185,-72.927784
114,Montgomery News,http://Montgomerynews.com,"290 Commerce Dr., Fort Washington, PA 19034",290 Commerce Dr.,,Fort Washington,PA,19034,PENNSYLVANIA,http://www.facebook.com/MontgomeryMedia,@montgomerymedia,https://twitter.com/fyiMontco,,W,W,JRC,"Fort Washington, PA",small_red,40.136273,-75.1987429
58,Nashoba Publishing,http://www.nashobapublishing.com,"78 Barnum Road, Devens, MA 01434-3508",78 Barnum Road,,Devens,MA, 01434-3508,MASSACHUSSETS,facebook.com/NashobaPub,@editorKATE,https://twitter.com/editorKATE,,W,W,MNG,"Nashoba, MA",small_red,42.547516,-71.588846
99,Oroville Mercury-Register,http://www.orovillemr.com/,"2124 Fifth Ave., Oroville, CA 95965",2124 Fifth Ave.,,Oroville,CA,95965,NORCAL - Northern California,,@OrovilleMR,https://twitter.com/OrovilleMR,,W,W,MNG,"Oroville, CA",small_red,39.502452,-121.566187
32,Post Chronicle,http://CTpostchronicle.com,"40 Sargent Drive, New Haven, CT 06511",40 Sargent Drive,,New Haven,CT,6511,CONNECTICUT,https://www.facebook.com/RegisterCitizen?fref=ts#!/CTPostChronicle?fref=ts,@CTpostchronicle,https://twitter.com/ctpostchronicle,,W,W,JRC,"New Haven, CT",small_red,41.287185,-72.927784
65,Press & Guide,http://Pressandguide.com,"One Heritage Drive, Suite 100, Southgate, MI 48195",One Heritage Drive, Suite 100,Southgate,MI,48195,MICHIGAN,http://bit.ly/PGbrandFB,@pressandguide,https://twitter.com/pressandguide,,W,W,JRC,"Southgate, MI",small_red,42.210209,-83.224242
88,Rome Observer,http://Romeobserver.com,"130 Broad St., Oneida, NY 13421",130 Broad St.,,Oneida,NY,13421,NEW YORK,https://www.facebook.com/pages/Rome-Observer/340124912888,@romeobserver,https://twitter.com/RomeObserver,,W,W,JRC,"Rome, NY",small_red,43.093742,-75.65364
79,Ruidoso News,http://www.ruidosonews.com/,"104 Park Avenue, Ruidoso, NM 88345",104 Park Avenue,,Ruidoso,NM,88345,NEW MEXICO,http://www.facebook.com/pages/Ruidoso-News/136941796341905,@RuidosoNews,https://twitter.com/RuidosoNews,,W,W,MNG,"Ruidoso, NM",small_red,33.328315,-105.662916
33,ShoreLine Times,http://Shorelinetimes.com,"40 Sargent Drive, New Haven, CT 06511",40 Sargent Drive,,New Haven,CT,6511,CONNECTICUT,https://www.facebook.com/RegisterCitizen?fref=ts#!/ShoreLineTimes?fref=ts,@ShorelineTimes,https://twitter.com/shorelinetimes,,W,W,JRC,"New Haven, CT",small_red,41.287185,-72.927784
80,Silver City Sun News,http://www.scsun-news.com/,"208 W. Broadway, Silver City, NM 88061",208 W. Broadway,,Silver City,NM,88061,NEW MEXICO,http://www.facebook.com/scsunnews,@SCSunNews,https://twitter.com/SCSunNews,,W,W,MNG,"Silver City, NM",small_red,32.7698222,-108.2772109
73,South Jersey Local News,http://www.southjerseylocalnews.com/,"32 S. Main Street, Medford, NJ 08055",32 S. Main Street,,Medford,NJ,8055,NEW JERSEY,http://bit.ly/V4UoAL,"@CentralRecord, @MapleShadeProg, @NJRecordBreeze, @NJCommunityNews",http://bit.ly/Tv9fWN,,W,W,JRC,,small_red,39.8983956,-74.8235407
119,Southern Chester County Weeklies,http://Southernchestercountyweeklies.com,"250 N. Bradford Ave., West Chester, PA 19382",250 N. Bradford Ave.,,West Chester,PA,19382,PENNSYLVANIA,,,,,W,W,JRC,"West Chester, PA",small_red,39.9584509,-75.6190589
116,The Advance of Bucks County (Bucks Local News),http://Buckslocalnews.com,"2100 Frost Rd., Bristol, PA 19007",2100 Frost Rd.,,Bristol,PA,19007,PENNSYLVANIA,http://www.facebook.com/pages/BucksLocalNewscom/196946321084,"@BucksLocalNews, @AdvanceofBucks",http://bit.ly/X5gNlA,,W,W,JRC,"Newtown, PA",small_red,40.116483,-74.8948432
56,The Advocate Weekly,http://www.advocateweekly.com/,"85 Main St., Suite 2, North Adams, MA 01247",85 Main St., Suite 2,North Adams,MA,1247,MASSACHUSSETS,facebook.com/TheAdvocateWeekly,None,None,,W,W,MNG,,small_red,42.6992383,-73.1125427
50,The Beach Reporter,http://www.tbrnews.com/,"2615 Pacific Coast Highway, Suite 329, Hermosa Beach, CA 90254",2615 Pacific Coast Highway, Suite 329,Hermosa Beach,CA,90254,LANG - Los Angeles News Group,http://www.facebook.com/TheBeachReporter?fref=ts,@Beach_Reporter,https://twitter.com/Beach_Reporter,,W,W,MNG,,,33.873536,-118.396328
15,The Burlington Record,http://www.burlington-record.com/,"302 South 14th St., Burlington, CO 80807",302 South 14th St.,,Burlington,CO,80807,COLORADO,http://www.facebook.com/BurlingtonRecord?ref=ts&fref=ts,@BrlingtonRecord,https://twitter.com/BrlingtonRecord,,W,W,MNG,"Burlington, CO",small_red,39.3061082,-102.2693563
81,The Deming Headlight,http://www.demingheadlight.com,"219 E. Maple, Deming, NM 88031",219 E. Maple,,Deming,NM,88031,NEW MEXICO,http://www.facebook.com/demingheadlight,@demingheadlight,https://twitter.com/demingheadlight,,W,W,MNG,"Deming, NM",small_red,32.2658104,-107.756644
37,The Foothills Trader,http://foothillstrader.com,"59 Field St., Torrington, CT 06790",59 Field St.,,Torrington,CT,6790,CONNECTICUT,https://www.facebook.com/#!/FoothillsTrader?fref=ts,@shopfoothills,https://twitter.com/shopfoothills,,W,W,JRC,"Torrington, CT",,41.807289,-73.126064
69,The Leader and The Kalkaskian,http://morningstarpublishing.com/leader_and_kalkaskian/,"318 North Cedar Street, Kalkaska, MI 49646",318 North Cedar Street,,Kalkaska,MI,49646,MICHIGAN,http://bit.ly/L-KbrandFB,,,,W,W,JRC,"Kalkaska, MI",,44.7377205,-85.1744802
138,The Manchester Journal,http://www.manchesterjournal.com/,"51 Memorial Ave., Manchester Center, VT 05255",51 Memorial Ave.,,Manchester Center,VT,5255,VERMONT,http://www.facebook.com/manchesterjournal,@ManJourn,https://twitter.com/ManJourn,,W,W,MNG,"Manchester, VT",small_red,43.178272,-73.054314
135,The Park Record,http://www.parkrecord.com/,"1670 Bonanza Drive, Suite 202, Park City, UT 84060",1670 Bonanza Drive, Suite 202,Park City,UT,84060,UTAH,,@Parkrecord,https://twitter.com/Parkrecord,,W,W,MNG,"Park City, UT",small_red,40.6614501,-111.5009699
115,The Phoenix,http://Phoenixvillenews.com,"24 N. Hanover Street, Pottstown, PA 19464",24 N. Hanover Street,,Pottstown,PA,19464,PENNSYLVANIA,https://www.facebook.com/phoenix.newspaper1,@PhxvilleNews,https://twitter.com/PhxvilleNews,,W,W,JRC,"Pottstown, PA",small_red,40.2466464,-75.6500179
127,The Star Group,http://bit.ly/Ts2l0J,"319 Burleson Blvd., Burleson, TX 76028-0909",319 Burleson Blvd.,,Burleson,TX, 76028-0909,TEXAS,,,,,W,W,MNG,,,32.548217,-97.317896
66,The Voice Newspapers,http://Voicenews.com,"51180 Bedford St., New Baltimore, MI 48047",51180 Bedford St.,,New Baltimore,MI,48047,MICHIGAN,http://bit.ly/VNbrandFB,@VoicenewsNB,https://twitter.com/VoicenewsNB,,W,W,JRC,"New Baltimore, MI",small_red,42.681832,-82.735169
23,Viva Colorado,http://www.vivacolorado.com/,"101 West Colfax Ave., 6th Floor, Denver, CO 80202",101 West Colfax Ave., 6th Floor,Denver,CO,80202,COLORADO,www.Facebook.com/TuVivaColorado,@vivacolorado,https://twitter.com/vivacolorado,,W,W,MNG,,small_red,39.740854,-104.988134
28,West Hartford News,http://westhartfordnews.com,"386 Main St., 4th Floor, Middletown, CT 06457",386 Main St., 4th Floor,Middletown,CT,6457,CONNECTICUT,https://www.facebook.com/#!/WHartfordNews?fref=ts,@WHartfordNews,https://twitter.com/WHartfordNews,,W,W,JRC,"Middletown, Ct",small_red,41.5615288,-72.6499552
126,Breckenridge American,http://www.breckenridgeamerican.com,"114 East Elm Street, Breckenridge, TX 76424",114 East Elm Street,,Breckenridge,TX,76424,TEXAS,http://www.facebook.com/pages/The-Breckenridge-American/84370698416?fref=ts,,,,,W,MNG,,small_red,32.7562799,-98.90239
51,Downtown Gazette,http://www.gazettes.com/,"5225 East Second St., Long Beach, CA 90803",5225 East Second St.,,Long Beach,CA,90803,LANG - Los Angeles News Group,,@LBGazetteNews,https://twitter.com/LBGazetteNews,,,W,MNG,,,33.7601744,-118.1343285
128,El Paso Times,http://www.elpasotimes.com/,"300 N. Campbell St., El Paso, TX 79901",300 N. Campbell St.,,El Paso,TX,79901,TEXAS,http://www.facebook.com/eptimes,@elpasotimes,https://twitter.com/elpasotimes,http://webmedia.newseum.org/newseum-multimedia/dfp/jpg15/lg/TX_EPT.jpg,,D,MNG,,,31.761498,-106.4850962
132,Jacksboro Gazette-News,http://www.jacksboronewspapers.com/,"212 N. Church, Jacksboro, TX 76458",212 N. Church,,Jacksboro,TX,76458,TEXAS,,,,,,W,MNG,,small_red,33.2203438,-98.1574794
130,Lake Country Sun,http://www.lakecountrysun.com,"617 N. FM 2353, Ste. 3, Graford, TX 76449",617 N. FM 2353, Ste. 3,Graford,TX,76449,TEXAS,http://www.facebook.com/pages/Lake-Country-Sun/345382108938?ref=ts&fref=ts,@lakecountrysun,https://twitter.com/lakecountrysun,,,W,MNG,,small_red,32.9273842,-98.4265164
52,Palos Verdes Peninsula News,http://www.pvnews.com/,"609 Deep Valley Drive, Suite 229, Rolling Hills Estates, CA 90274",609 Deep Valley Drive, Suite 229,Rolling Hills Estates,CA,90274,LANG - Los Angeles News Group,,@PVNewsEditor,https://twitter.com/PVNewsEditor,,,W,MNG,,,33.7710126,-118.3723161
129,Somos Frontera,http://www.somosfrontera.com/,"300 N. Campbell St., El Paso, TX 79901",300 N. Campbell St.,,El Paso,TX,79901,TEXAS,http://www.facebook.com/somosfrontera,@somos_frontera,https://twitter.com/somos_frontera,,,W,MNG,,small_red,31.761498,-106.4850962
131,The Graham Leader,http://www.grahamleader.com/,"620 Oak Street, Graham, TX 76450",620 Oak Street,,Graham,TX,76450,TEXAS,,@grahamleader,https://twitter.com/grahamleader,,,W,MNG,,small_red,33.105585,-98.591389
133,The Olney Enterprise,http://www.olneyenterprise.com/,"213 E. Main St., Olney, TX 76374",213 E. Main St.,,Olney,TX,76374,TEXAS,http://www.facebook.com/pages/The-Olney-Enterprise/264762117786?fref=ts,,,,,W,MNG,,small_red,33.3706175,-98.7525072
104,Willits News,http://www.willitsnews.com/,"77 West Commercial St., Willits, CA 95490",77 West Commercial St.,,Willits,CA,95490,NORCAL - Northern California,http://www.facebook.com/WillitsNews,@TheWillitsNews,https://twitter.com/TheWillitsNews,,,W,MNG,"Willits, CA",small_red,39.412124,-123.355584
1001,Salt Lake Tribune,http://www.sltrib.com/,"90 S. 400 West, Suite 700, Salt Lake City, UT 84101",90 S. 400 West,Suite 700,Salt Lake City,UT,84101,UTAH,,@sltrib,https://twitter.com/sltrib,,,D,MNG,"Salt Lake City, UT",small_blue,40.770158,-111.904553